{
"type": "FeatureCollection",
"name": "Railway",
"crs": { "type": "name", "properties": { "name": "urn:ogc:def:crs:OGC:1.3:CRS84" } },
"features": [
{ "type": "Feature", "properties": { "osm_id": "45078432", "code": 6101, "fclass": "rail", "name": null, "layer": 0, "bridge": "F", "tunnel": "F" }, "geometry": { "type": "LineString", "coordinates": [ [ 73.9281499, 15.4711428 ], [ 73.9281314, 15.4730867 ], [ 73.9280994, 15.4742717 ], [ 73.9279744, 15.4754827 ], [ 73.9277094, 15.4766907 ], [ 73.9272794, 15.4780937 ], [ 73.9263174, 15.4809887 ], [ 73.9259754, 15.4821467 ], [ 73.9257324, 15.4834067 ], [ 73.9255504, 15.4846767 ], [ 73.9254128, 15.4856614 ], [ 73.9253824, 15.4858787 ], [ 73.9252149, 15.4870579 ], [ 73.924711, 15.4906503 ], [ 73.924563, 15.4919356 ], [ 73.9245235, 15.4925813 ], [ 73.9245076, 15.4928419 ], [ 73.9245113, 15.4929326 ], [ 73.9245675, 15.4943088 ], [ 73.9247225, 15.4971373 ], [ 73.924726, 15.4972478 ], [ 73.9249024, 15.5000667 ], [ 73.9249474, 15.5007937 ], [ 73.9250024, 15.5014547 ], [ 73.9250584, 15.5020487 ], [ 73.9250914, 15.5025807 ], [ 73.9251324, 15.5032877 ] ] } },
{ "type": "Feature", "properties": { "osm_id": "45078433", "code": 6101, "fclass": "rail", "name": "Zuari Bridge", "layer": 1, "bridge": "T", "tunnel": "F" }, "geometry": { "type": "LineString", "coordinates": [ [ 73.9079301, 15.4080459 ], [ 73.9085178, 15.4106139 ], [ 73.9090153, 15.4127874 ], [ 73.9095086, 15.4149428 ], [ 73.9105834, 15.4196388 ] ] } },
{ "type": "Feature", "properties": { "osm_id": "90866051", "code": 6101, "fclass": "rail", "name": null, "layer": 0, "bridge": "F", "tunnel": "F" }, "geometry": { "type": "LineString", "coordinates": [ [ 73.8101069, 15.393226 ], [ 73.8091171, 15.3946491 ], [ 73.8089957, 15.3947957 ], [ 73.8088743, 15.3949164 ], [ 73.8087246, 15.3950576 ], [ 73.8085313, 15.3952054 ], [ 73.8083717, 15.3953077 ], [ 73.8081254, 15.3954799 ], [ 73.8079763, 15.3955482 ], [ 73.8077493, 15.39565 ], [ 73.8076707, 15.3956857 ], [ 73.8073426, 15.3958247 ], [ 73.8070934, 15.3959468 ], [ 73.8069357, 15.3960319 ] ] } },
{ "type": "Feature", "properties": { "osm_id": "90866053", "code": 6101, "fclass": "rail", "name": null, "layer": 0, "bridge": "F", "tunnel": "F" }, "geometry": { "type": "LineString", "coordinates": [ [ 73.8098006, 15.39304 ], [ 73.8096476, 15.393304 ], [ 73.8095922, 15.3934287 ], [ 73.8094977, 15.3936477 ], [ 73.8094032, 15.3938683 ], [ 73.8092452, 15.3942288 ], [ 73.8090991, 15.3945456 ], [ 73.8090312, 15.3946718 ], [ 73.8088743, 15.3949164 ] ] } },
{ "type": "Feature", "properties": { "osm_id": "124351638", "code": 6101, "fclass": "rail", "name": null, "layer": 0, "bridge": "F", "tunnel": "F" }, "geometry": { "type": "LineString", "coordinates": [ [ 73.9074556, 15.4058069 ], [ 73.9079301, 15.4080459 ] ] } },
{ "type": "Feature", "properties": { "osm_id": "124351640", "code": 6101, "fclass": "rail", "name": null, "layer": 1, "bridge": "T", "tunnel": "F" }, "geometry": { "type": "LineString", "coordinates": [ [ 73.9069691, 15.4020548 ], [ 73.9069546, 15.402596 ], [ 73.906966, 15.4031868 ], [ 73.9070101, 15.4035963 ], [ 73.9070265, 15.4039081 ], [ 73.9074556, 15.4058069 ] ] } },
{ "type": "Feature", "properties": { "osm_id": "124351642", "code": 6101, "fclass": "rail", "name": null, "layer": 0, "bridge": "F", "tunnel": "F" }, "geometry": { "type": "LineString", "coordinates": [ [ 73.8093937, 15.392787 ], [ 73.8090496, 15.3932834 ], [ 73.8087922, 15.3936364 ], [ 73.8085981, 15.3938926 ], [ 73.8084209, 15.3941066 ], [ 73.8082382, 15.3942983 ], [ 73.8079299, 15.3946046 ], [ 73.8076189, 15.3948768 ], [ 73.8068203, 15.3955008 ], [ 73.8066816, 15.3956126 ], [ 73.8065462, 15.3957437 ], [ 73.8063144, 15.3959807 ], [ 73.8061713, 15.3961345 ], [ 73.806055, 15.3962687 ], [ 73.8059099, 15.396479 ], [ 73.805832, 15.396628 ], [ 73.8056023, 15.3970643 ], [ 73.8053807, 15.3974081 ] ] } },
{ "type": "Feature", "properties": { "osm_id": "157087095", "code": 6101, "fclass": "rail", "name": null, "layer": 0, "bridge": "F", "tunnel": "F" }, "geometry": { "type": "LineString", "coordinates": [ [ 73.924726, 15.4972478 ], [ 73.9245858, 15.4950927 ], [ 73.9244802, 15.4937113 ], [ 73.9244413, 15.4930794 ], [ 73.9244719, 15.4922039 ], [ 73.924558, 15.4914168 ], [ 73.924658, 15.4906163 ], [ 73.9248997, 15.4888091 ], [ 73.9250775, 15.4877649 ], [ 73.9252149, 15.4870579 ] ] } },
{ "type": "Feature", "properties": { "osm_id": "202295802", "code": 6101, "fclass": "rail", "name": null, "layer": 0, "bridge": "F", "tunnel": "F" }, "geometry": { "type": "LineString", "coordinates": [ [ 73.9188502, 15.5306846 ], [ 73.918808, 15.5312229 ], [ 73.9187611, 15.5319222 ], [ 73.918739, 15.5326781 ], [ 73.9188092, 15.5336807 ], [ 73.9189184, 15.5343835 ], [ 73.9190276, 15.5351691 ], [ 73.9193096, 15.5363177 ], [ 73.9196926, 15.5373653 ], [ 73.9199871, 15.5380863 ], [ 73.9205654, 15.5396393 ] ] } },
{ "type": "Feature", "properties": { "osm_id": "202295804", "code": 6101, "fclass": "rail", "name": null, "layer": 1, "bridge": "T", "tunnel": "F" }, "geometry": { "type": "LineString", "coordinates": [ [ 73.9249113, 15.5186673 ], [ 73.9246364, 15.5193341 ], [ 73.9242634, 15.5200817 ], [ 73.9239979, 15.5204922 ], [ 73.923733, 15.5208963 ], [ 73.9231976, 15.521667 ], [ 73.9225073, 15.5226203 ] ] } },
{ "type": "Feature", "properties": { "osm_id": "248803467", "code": 6101, "fclass": "rail", "name": null, "layer": 0, "bridge": "F", "tunnel": "F" }, "geometry": { "type": "LineString", "coordinates": [ [ 73.91652, 15.381713 ], [ 73.916513, 15.382751 ], [ 73.916497, 15.383782 ], [ 73.916431, 15.384872 ], [ 73.916279, 15.385962 ], [ 73.91596, 15.387328 ], [ 73.915535, 15.388593 ], [ 73.915101, 15.389593 ], [ 73.9147676, 15.3901983 ], [ 73.914484, 15.390713 ], [ 73.913791, 15.391761 ], [ 73.912972, 15.392784 ], [ 73.912138, 15.393669 ], [ 73.9099301, 15.3958921 ], [ 73.9092195, 15.3966939 ], [ 73.9091475, 15.3967751 ], [ 73.9085779, 15.3975072 ], [ 73.9082125, 15.3980972 ], [ 73.9079061, 15.3986511 ], [ 73.9076888, 15.3991594 ] ] } },
{ "type": "Feature", "properties": { "osm_id": "248803470", "code": 6101, "fclass": "rail", "name": "T71 : Verna Tunnel", "layer": -1, "bridge": "F", "tunnel": "T" }, "geometry": { "type": "LineString", "coordinates": [ [ 73.9164284, 15.3743389 ], [ 73.9164815, 15.3786165 ], [ 73.91652, 15.381713 ] ] } },
{ "type": "Feature", "properties": { "osm_id": "313625867", "code": 6101, "fclass": "rail", "name": null, "layer": 0, "bridge": "F", "tunnel": "F" }, "geometry": { "type": "LineString", "coordinates": [ [ 73.8069357, 15.3960319 ], [ 73.8068362, 15.3960873 ], [ 73.8065787, 15.3962402 ], [ 73.8064056, 15.3963633 ], [ 73.8062745, 15.3964687 ], [ 73.8060947, 15.3966259 ], [ 73.8059578, 15.3967685 ], [ 73.8057868, 15.3969314 ], [ 73.8056214, 15.397123 ], [ 73.8053807, 15.3974081 ], [ 73.805268, 15.3975352 ], [ 73.8052102, 15.3976659 ], [ 73.8050858, 15.3978402 ] ] } },
{ "type": "Feature", "properties": { "osm_id": "313625870", "code": 6101, "fclass": "rail", "name": null, "layer": 0, "bridge": "F", "tunnel": "F" }, "geometry": { "type": "LineString", "coordinates": [ [ 73.8085673, 15.3952972 ], [ 73.8088542, 15.3952419 ], [ 73.8090108, 15.3952178 ], [ 73.8091647, 15.3952106 ], [ 73.8094632, 15.3952197 ], [ 73.8096347, 15.3952329 ], [ 73.8098159, 15.3952437 ], [ 73.8100409, 15.3952755 ], [ 73.8102075, 15.395309 ], [ 73.8104082, 15.3953583 ], [ 73.810633, 15.3954133 ], [ 73.8109398, 15.395497 ], [ 73.8122967, 15.3959881 ], [ 73.8138482, 15.3965364 ], [ 73.8140705, 15.3966047 ], [ 73.8143163, 15.396673 ], [ 73.8144738, 15.3967266 ], [ 73.8146448, 15.3967932 ], [ 73.8149667, 15.3969232 ] ] } },
{ "type": "Feature", "properties": { "osm_id": "313625871", "code": 6101, "fclass": "rail", "name": null, "layer": 0, "bridge": "F", "tunnel": "F" }, "geometry": { "type": "LineString", "coordinates": [ [ 73.8157318, 15.3973579 ], [ 73.8153394, 15.3971874 ], [ 73.815144, 15.3971082 ], [ 73.8148821, 15.3970082 ], [ 73.8143723, 15.3968316 ], [ 73.8138238, 15.3966388 ], [ 73.812631, 15.3961844 ], [ 73.8110511, 15.3956309 ], [ 73.810811, 15.3955466 ], [ 73.8106108, 15.3954944 ], [ 73.8104053, 15.3954518 ], [ 73.8101279, 15.3953915 ], [ 73.8098972, 15.3953639 ], [ 73.809677, 15.3953417 ], [ 73.8094127, 15.3953171 ], [ 73.8092206, 15.3953152 ], [ 73.8090268, 15.3953245 ], [ 73.8088453, 15.3953243 ], [ 73.8087028, 15.3953349 ], [ 73.8085015, 15.3954005 ], [ 73.8082344, 15.3955004 ], [ 73.8077493, 15.39565 ] ] } },
{ "type": "Feature", "properties": { "osm_id": "313625873", "code": 6101, "fclass": "rail", "name": null, "layer": 0, "bridge": "F", "tunnel": "F" }, "geometry": { "type": "LineString", "coordinates": [ [ 73.8177326, 15.3981482 ], [ 73.8173386, 15.3980502 ], [ 73.8171187, 15.3979693 ], [ 73.8168129, 15.3978691 ], [ 73.8165091, 15.3977554 ], [ 73.8163076, 15.3976814 ], [ 73.8160355, 15.3975786 ], [ 73.8157567, 15.3974613 ], [ 73.8154568, 15.3973287 ], [ 73.8151603, 15.3972089 ], [ 73.814752, 15.3970448 ], [ 73.8141192, 15.3968247 ], [ 73.8124456, 15.396173 ], [ 73.810928, 15.3956291 ], [ 73.8107088, 15.3955666 ], [ 73.8104823, 15.3955094 ], [ 73.8102625, 15.3954652 ], [ 73.8099788, 15.3954228 ], [ 73.8097069, 15.3953902 ], [ 73.8093965, 15.3953637 ], [ 73.8091885, 15.3953664 ], [ 73.8090074, 15.3953815 ], [ 73.808851, 15.3954055 ], [ 73.8086701, 15.395443 ], [ 73.808448, 15.3955073 ], [ 73.8080977, 15.395611 ] ] } },
{ "type": "Feature", "properties": { "osm_id": "313625875", "code": 6101, "fclass": "rail", "name": null, "layer": 0, "bridge": "F", "tunnel": "F" }, "geometry": { "type": "LineString", "coordinates": [ [ 73.8163076, 15.3976814 ], [ 73.8157318, 15.3973579 ], [ 73.815234, 15.397087 ], [ 73.8149667, 15.3969232 ], [ 73.8146486, 15.3967546 ], [ 73.814376, 15.3966379 ], [ 73.8138923, 15.3964641 ], [ 73.8106825, 15.3952528 ], [ 73.8104727, 15.3951974 ], [ 73.8102696, 15.3951468 ], [ 73.8100566, 15.395094 ], [ 73.8098607, 15.3950679 ], [ 73.8096939, 15.3950485 ], [ 73.8095106, 15.3950466 ], [ 73.8093508, 15.3950577 ], [ 73.8091455, 15.3950864 ], [ 73.8088881, 15.3951663 ], [ 73.8085673, 15.3952972 ], [ 73.8084244, 15.3953675 ], [ 73.8081254, 15.3954799 ] ] } },
{ "type": "Feature", "properties": { "osm_id": "313626206", "code": 6101, "fclass": "rail", "name": null, "layer": 0, "bridge": "F", "tunnel": "F" }, "geometry": { "type": "LineString", "coordinates": [ [ 73.8088881, 15.3951663 ], [ 73.8091035, 15.3951261 ], [ 73.8092644, 15.3951039 ], [ 73.8094252, 15.3950996 ], [ 73.809615, 15.3950955 ], [ 73.8097612, 15.3951044 ], [ 73.8099255, 15.3951196 ], [ 73.8101234, 15.3951558 ], [ 73.8103243, 15.3951989 ], [ 73.8105319, 15.3952583 ], [ 73.8110106, 15.395432 ], [ 73.8133569, 15.3963243 ], [ 73.8137803, 15.3964733 ], [ 73.8143163, 15.396673 ] ] } },
{ "type": "Feature", "properties": { "osm_id": "313626207", "code": 6101, "fclass": "rail", "name": null, "layer": 0, "bridge": "F", "tunnel": "F" }, "geometry": { "type": "LineString", "coordinates": [ [ 73.815234, 15.397087 ], [ 73.8150788, 15.3970334 ], [ 73.8148402, 15.3969475 ], [ 73.8146935, 15.3968969 ], [ 73.8142122, 15.3967304 ], [ 73.8138551, 15.3966055 ], [ 73.8131459, 15.3963398 ], [ 73.811076, 15.3955934 ], [ 73.8108894, 15.3955308 ], [ 73.8106028, 15.3954559 ], [ 73.8103465, 15.3953924 ], [ 73.8099211, 15.3953152 ], [ 73.8095842, 15.3952799 ], [ 73.8093647, 15.3952678 ], [ 73.809167, 15.3952541 ], [ 73.8090266, 15.3952586 ], [ 73.8089286, 15.3952697 ], [ 73.808834, 15.3952842 ], [ 73.8087033, 15.3952899 ], [ 73.8085901, 15.3953272 ], [ 73.8082344, 15.3955004 ] ] } },
{ "type": "Feature", "properties": { "osm_id": "313626210", "code": 6101, "fclass": "rail", "name": null, "layer": 0, "bridge": "F", "tunnel": "F" }, "geometry": { "type": "LineString", "coordinates": [ [ 73.7946008, 15.4132841 ], [ 73.7951098, 15.412906 ], [ 73.7958384, 15.412359 ], [ 73.796289, 15.4120281 ], [ 73.7965972, 15.4117985 ], [ 73.7968331, 15.4116139 ], [ 73.7970549, 15.4113978 ], [ 73.79723, 15.4112357 ], [ 73.7973701, 15.4110849 ], [ 73.7975476, 15.4108553 ], [ 73.7977741, 15.4104951 ], [ 73.7979212, 15.4102407 ], [ 73.7980122, 15.4100967 ], [ 73.7981056, 15.4099571 ], [ 73.7982878, 15.4097478 ], [ 73.798547, 15.4094799 ], [ 73.7987694, 15.4092584 ], [ 73.7988989, 15.409153 ], [ 73.7990475, 15.4090385 ], [ 73.7995491, 15.4086672 ], [ 73.7999555, 15.4083624 ], [ 73.8003145, 15.4080805 ], [ 73.8007946, 15.4076772 ], [ 73.8016432, 15.4070352 ], [ 73.8019636, 15.4067874 ], [ 73.8021062, 15.4066782 ], [ 73.8022975, 15.4065376 ], [ 73.8027058, 15.4062637 ], [ 73.8028563, 15.4061609 ], [ 73.8030395, 15.4060384 ], [ 73.8031728, 15.4059252 ], [ 73.8033232, 15.4058061 ], [ 73.8034667, 15.4056848 ], [ 73.8036148, 15.4055455 ], [ 73.8037093, 15.4054509 ], [ 73.8037944, 15.4053698 ], [ 73.803914, 15.4052325 ], [ 73.8040173, 15.4050899 ], [ 73.8041188, 15.4049308 ], [ 73.804211, 15.4047693 ], [ 73.804323, 15.4045728 ], [ 73.8044349, 15.4043403 ], [ 73.8045878, 15.403955 ], [ 73.8047004, 15.4036008 ], [ 73.8048104, 15.4030681 ], [ 73.8048506, 15.4026854 ], [ 73.804856, 15.4021552 ], [ 73.8048614, 15.4016277 ], [ 73.8048426, 15.400702 ], [ 73.8048422, 15.4002581 ], [ 73.8048248, 15.4000321 ], [ 73.8048034, 15.3997772 ] ] } },
{ "type": "Feature", "properties": { "osm_id": "313626212", "code": 6101, "fclass": "rail", "name": null, "layer": 0, "bridge": "F", "tunnel": "F" }, "geometry": { "type": "LineString", "coordinates": [ [ 73.8048098, 15.3995564 ], [ 73.8047663, 15.3998785 ], [ 73.804751, 15.400607 ], [ 73.8047702, 15.4018087 ], [ 73.8047621, 15.4024656 ], [ 73.8047433, 15.4028508 ], [ 73.8046743, 15.4032789 ], [ 73.8046237, 15.4035063 ], [ 73.8045824, 15.4036887 ], [ 73.8044983, 15.4038966 ], [ 73.8044236, 15.4040639 ], [ 73.8043216, 15.4043008 ], [ 73.8042132, 15.4045329 ], [ 73.8040791, 15.404756 ], [ 73.8039661, 15.4049442 ], [ 73.8038227, 15.4051188 ], [ 73.8036942, 15.405268 ], [ 73.8035704, 15.4054037 ], [ 73.8034371, 15.40554 ], [ 73.8032792, 15.4056812 ], [ 73.8031297, 15.4058054 ], [ 73.8029334, 15.4059598 ], [ 73.8027254, 15.4061007 ], [ 73.8025293, 15.4062273 ], [ 73.802265, 15.4063921 ], [ 73.8020492, 15.4065406 ], [ 73.8017662, 15.4067666 ], [ 73.8004057, 15.4078207 ], [ 73.7999956, 15.4081347 ], [ 73.7992283, 15.4087142 ], [ 73.7990118, 15.4088831 ], [ 73.7986762, 15.40916 ], [ 73.7983368, 15.4094776 ], [ 73.7980519, 15.4097523 ], [ 73.7978768, 15.4099729 ], [ 73.7977507, 15.4101777 ], [ 73.7976503, 15.4103465 ], [ 73.7975219, 15.4105491 ], [ 73.7974051, 15.4107 ], [ 73.797223, 15.4108845 ], [ 73.7969638, 15.4111502 ], [ 73.796679, 15.4114406 ], [ 73.7964478, 15.4116522 ], [ 73.7961676, 15.4118525 ], [ 73.7958174, 15.4120911 ], [ 73.7955675, 15.4122757 ], [ 73.7950725, 15.4127068 ], [ 73.794881, 15.4128452 ], [ 73.7947654, 15.4129105 ], [ 73.7946545, 15.4129577 ], [ 73.7944887, 15.4130118 ], [ 73.7943218, 15.4130489 ], [ 73.7941385, 15.4130771 ], [ 73.7939587, 15.4130973 ], [ 73.7937719, 15.4130928 ], [ 73.7935718, 15.4130763 ] ] } },
{ "type": "Feature", "properties": { "osm_id": "313626217", "code": 6101, "fclass": "rail", "name": null, "layer": 0, "bridge": "F", "tunnel": "F" }, "geometry": { "type": "LineString", "coordinates": [ [ 73.8056023, 15.3970643 ], [ 73.805868, 15.3966446 ], [ 73.8060617, 15.3963439 ], [ 73.8061603, 15.3962219 ], [ 73.8063429, 15.3960253 ], [ 73.8065501, 15.3958208 ], [ 73.8067288, 15.3956519 ], [ 73.8069311, 15.3954743 ], [ 73.807646, 15.3949143 ], [ 73.8083226, 15.3944068 ], [ 73.8090725, 15.3937874 ] ] } },
{ "type": "Feature", "properties": { "osm_id": "313626824", "code": 6101, "fclass": "rail", "name": null, "layer": 0, "bridge": "F", "tunnel": "F" }, "geometry": { "type": "LineString", "coordinates": [ [ 73.8059099, 15.396479 ], [ 73.8060135, 15.39623 ], [ 73.8061547, 15.3959861 ], [ 73.8063045, 15.3957649 ], [ 73.8064879, 15.3955245 ], [ 73.8068287, 15.39502 ], [ 73.8072044, 15.3944898 ], [ 73.8074319, 15.3941858 ] ] } },
{ "type": "Feature", "properties": { "osm_id": "313665888", "code": 6101, "fclass": "rail", "name": null, "layer": 0, "bridge": "F", "tunnel": "F" }, "geometry": { "type": "LineString", "coordinates": [ [ 73.895076, 15.3479388 ], [ 73.8954349, 15.347431 ], [ 73.8957408, 15.3470248 ], [ 73.8968539, 15.3455944 ], [ 73.8974474, 15.3448424 ], [ 73.8979563, 15.3441977 ], [ 73.8989273, 15.3429638 ], [ 73.8991928, 15.3426302 ], [ 73.8993751, 15.3423424 ] ] } },
{ "type": "Feature", "properties": { "osm_id": "313665890", "code": 6101, "fclass": "rail", "name": null, "layer": 0, "bridge": "F", "tunnel": "F" }, "geometry": { "type": "LineString", "coordinates": [ [ 73.8744783, 15.3711217 ], [ 73.8736187, 15.3713007 ], [ 73.8735224, 15.3713211 ], [ 73.8729534, 15.3714572 ], [ 73.8725375, 15.3715626 ], [ 73.8723263, 15.3716082 ], [ 73.8721196, 15.371641 ], [ 73.8719414, 15.3716637 ], [ 73.8717448, 15.3716734 ], [ 73.8714775, 15.3716815 ], [ 73.8711834, 15.3716766 ], [ 73.870943, 15.3716523 ], [ 73.8706724, 15.3716118 ], [ 73.8703261, 15.371534 ], [ 73.8695328, 15.3713314 ], [ 73.8677393, 15.3708776 ], [ 73.867504, 15.3708339 ], [ 73.8673224, 15.370795 ], [ 73.8670367, 15.3707577 ], [ 73.8667493, 15.3707123 ], [ 73.8665591, 15.3706862 ], [ 73.8660514, 15.3706374 ], [ 73.8654019, 15.3705634 ], [ 73.8648971, 15.3705026 ], [ 73.8647001, 15.3704886 ], [ 73.8643993, 15.370491 ], [ 73.8641932, 15.3705015 ] ] } },
{ "type": "Feature", "properties": { "osm_id": "313669168", "code": 6101, "fclass": "rail", "name": null, "layer": 0, "bridge": "F", "tunnel": "F" }, "geometry": { "type": "LineString", "coordinates": [ [ 73.9147322, 15.3612642 ], [ 73.9150184, 15.3621369 ], [ 73.9151632, 15.3626386 ], [ 73.915646, 15.3641853 ], [ 73.9158311, 15.3647517 ], [ 73.9160505, 15.3655412 ], [ 73.9161873, 15.3662834 ] ] } },
{ "type": "Feature", "properties": { "osm_id": "313669426", "code": 6101, "fclass": "rail", "name": null, "layer": 0, "bridge": "F", "tunnel": "F" }, "geometry": { "type": "LineString", "coordinates": [ [ 73.9128329, 15.3583032 ], [ 73.9130062, 15.3586736 ], [ 73.913439, 15.3593128 ], [ 73.9141142, 15.36007 ], [ 73.9143167, 15.360369 ], [ 73.914579, 15.3608148 ], [ 73.9146857, 15.3611279 ], [ 73.9147322, 15.3612642 ], [ 73.9149044, 15.3617187 ], [ 73.9151275, 15.3622499 ] ] } },
{ "type": "Feature", "properties": { "osm_id": "313669427", "code": 6101, "fclass": "rail", "name": null, "layer": 0, "bridge": "F", "tunnel": "F" }, "geometry": { "type": "LineString", "coordinates": [ [ 73.9100612, 15.3471276 ], [ 73.9100519, 15.3468835 ] ] } },
{ "type": "Feature", "properties": { "osm_id": "313700242", "code": 6101, "fclass": "rail", "name": null, "layer": 0, "bridge": "F", "tunnel": "F" }, "geometry": { "type": "LineString", "coordinates": [ [ 73.9102526, 15.3482123 ], [ 73.9102729, 15.349032 ], [ 73.91034, 15.3497692 ], [ 73.9103951, 15.3500138 ], [ 73.9105116, 15.3504288 ], [ 73.9105948, 15.3506926 ] ] } },
{ "type": "Feature", "properties": { "osm_id": "313700252", "code": 6101, "fclass": "rail", "name": null, "layer": 0, "bridge": "F", "tunnel": "F" }, "geometry": { "type": "LineString", "coordinates": [ [ 73.9141142, 15.36007 ], [ 73.9135747, 15.3595407 ], [ 73.9129846, 15.3590028 ], [ 73.9127862, 15.3587441 ], [ 73.9126601, 15.3584544 ], [ 73.9124107, 15.3578803 ], [ 73.9121505, 15.357125 ], [ 73.9116328, 15.3555706 ], [ 73.9111259, 15.3540266 ], [ 73.9102729, 15.3513651 ], [ 73.9101951, 15.3510625 ], [ 73.9101227, 15.3506745 ], [ 73.9100637, 15.3501934 ], [ 73.9100128, 15.3497795 ] ] } },
{ "type": "Feature", "properties": { "osm_id": "313701982", "code": 6101, "fclass": "rail", "name": null, "layer": 0, "bridge": "F", "tunnel": "F" }, "geometry": { "type": "LineString", "coordinates": [ [ 73.9112707, 15.3523014 ], [ 73.9113995, 15.3527256 ], [ 73.9115979, 15.3533386 ], [ 73.9118769, 15.3541637 ], [ 73.912042, 15.3545375 ], [ 73.9122005, 15.3548901 ] ] } },
{ "type": "Feature", "properties": { "osm_id": "313701989", "code": 6101, "fclass": "rail", "name": null, "layer": 0, "bridge": "F", "tunnel": "F" }, "geometry": { "type": "LineString", "coordinates": [ [ 73.911171, 15.3517742 ], [ 73.9112707, 15.3523014 ], [ 73.9114307, 15.3532261 ] ] } },
{ "type": "Feature", "properties": { "osm_id": "313701990", "code": 6101, "fclass": "rail", "name": null, "layer": 0, "bridge": "F", "tunnel": "F" }, "geometry": { "type": "LineString", "coordinates": [ [ 73.9123517, 15.3560572 ], [ 73.9126221, 15.3568808 ], [ 73.913063, 15.3576934 ], [ 73.9132052, 15.3579779 ], [ 73.9137036, 15.3590649 ], [ 73.9139911, 15.3596281 ], [ 73.9142164, 15.3600083 ], [ 73.9144448, 15.3604443 ] ] } },
{ "type": "Feature", "properties": { "osm_id": "313701991", "code": 6101, "fclass": "rail", "name": null, "layer": 0, "bridge": "F", "tunnel": "F" }, "geometry": { "type": "LineString", "coordinates": [ [ 73.9131509, 15.357707 ], [ 73.9129337, 15.3573656 ], [ 73.912754, 15.357019 ], [ 73.9126306, 15.3566621 ], [ 73.912425, 15.3560344 ] ] } },
{ "type": "Feature", "properties": { "osm_id": "655319852", "code": 6101, "fclass": "rail", "name": null, "layer": 0, "bridge": "F", "tunnel": "F" }, "geometry": { "type": "LineString", "coordinates": [ [ 73.8954349, 15.347431 ], [ 73.8949751, 15.3479422 ] ] } },
{ "type": "Feature", "properties": { "osm_id": "655319853", "code": 6101, "fclass": "rail", "name": null, "layer": 0, "bridge": "F", "tunnel": "F" }, "geometry": { "type": "LineString", "coordinates": [ [ 73.8642061, 15.3704721 ], [ 73.86447, 15.3704595 ], [ 73.8646667, 15.3704708 ], [ 73.8648971, 15.3705026 ] ] } },
{ "type": "Feature", "properties": { "osm_id": "655319854", "code": 6101, "fclass": "rail", "name": null, "layer": 0, "bridge": "F", "tunnel": "F" }, "geometry": { "type": "LineString", "coordinates": [ [ 73.8654019, 15.3705634 ], [ 73.8657088, 15.3706232 ], [ 73.8660853, 15.3706734 ], [ 73.8667291, 15.370748 ], [ 73.8671728, 15.3708144 ], [ 73.8674535, 15.3708647 ], [ 73.8677359, 15.3709181 ], [ 73.8680334, 15.3709894 ], [ 73.8684486, 15.371098 ], [ 73.8703362, 15.3715843 ], [ 73.8705951, 15.3716426 ], [ 73.8707766, 15.3716766 ], [ 73.8709329, 15.3716945 ], [ 73.8710993, 15.3717058 ], [ 73.8712506, 15.3717172 ], [ 73.871538, 15.3717269 ], [ 73.871738, 15.371722 ], [ 73.8719431, 15.3717091 ], [ 73.8721734, 15.3716831 ], [ 73.8723768, 15.3716458 ], [ 73.8726709, 15.3715729 ], [ 73.8730928, 15.3714627 ], [ 73.8735224, 15.3713211 ] ] } },
{ "type": "Feature", "properties": { "osm_id": "655319855", "code": 6101, "fclass": "rail", "name": null, "layer": 0, "bridge": "F", "tunnel": "F" }, "geometry": { "type": "LineString", "coordinates": [ [ 73.8730928, 15.3714627 ], [ 73.8727096, 15.3715859 ], [ 73.8725667, 15.3716296 ], [ 73.872407, 15.3716831 ], [ 73.8722608, 15.371722 ], [ 73.872091, 15.3717593 ], [ 73.8719213, 15.3717771 ], [ 73.8717498, 15.3717868 ], [ 73.8715683, 15.3717949 ], [ 73.871422, 15.3717966 ], [ 73.8712422, 15.3717917 ], [ 73.8710943, 15.3717804 ], [ 73.8708791, 15.3717625 ], [ 73.8706589, 15.3717334 ], [ 73.870432, 15.3716912 ], [ 73.8701799, 15.3716329 ], [ 73.8697261, 15.371521 ], [ 73.8679259, 15.3710689 ], [ 73.8677342, 15.3710202 ], [ 73.8675359, 15.37097 ], [ 73.8673897, 15.3709392 ], [ 73.8670451, 15.3708922 ], [ 73.8668787, 15.370876 ], [ 73.866677, 15.3708565 ], [ 73.8664223, 15.3708128 ], [ 73.8661778, 15.370748 ], [ 73.8659458, 15.370688 ], [ 73.8657088, 15.3706232 ] ] } },
{ "type": "Feature", "properties": { "osm_id": "655334560", "code": 6101, "fclass": "rail", "name": null, "layer": 0, "bridge": "F", "tunnel": "F" }, "geometry": { "type": "LineString", "coordinates": [ [ 73.8178614, 15.3982267 ], [ 73.8179556, 15.3982374 ], [ 73.8182826, 15.3983045 ], [ 73.8185884, 15.3983493 ] ] } },
{ "type": "Feature", "properties": { "osm_id": "655334561", "code": 6101, "fclass": "rail", "name": null, "layer": 0, "bridge": "F", "tunnel": "F" }, "geometry": { "type": "LineString", "coordinates": [ [ 73.8168129, 15.3978691 ], [ 73.8176482, 15.3981858 ] ] } },
{ "type": "Feature", "properties": { "osm_id": "655334562", "code": 6101, "fclass": "rail", "name": null, "layer": 0, "bridge": "F", "tunnel": "F" }, "geometry": { "type": "LineString", "coordinates": [ [ 73.8101657, 15.3956381 ], [ 73.8100833, 15.3956245 ], [ 73.8097842, 15.395591 ], [ 73.8094504, 15.3955485 ], [ 73.8090175, 15.3955326 ] ] } },
{ "type": "Feature", "properties": { "osm_id": "655334563", "code": 6101, "fclass": "rail", "name": null, "layer": 0, "bridge": "F", "tunnel": "F" }, "geometry": { "type": "LineString", "coordinates": [ [ 73.8092079, 15.3948893 ], [ 73.8099726, 15.3949136 ], [ 73.8101155, 15.3949427 ], [ 73.8102214, 15.3949703 ], [ 73.8103391, 15.3950189 ], [ 73.8104752, 15.3950837 ], [ 73.8106416, 15.3951615 ], [ 73.8110572, 15.3953301 ], [ 73.8115501, 15.3955538 ] ] } },
{ "type": "Feature", "properties": { "osm_id": "655334564", "code": 6101, "fclass": "rail", "name": null, "layer": 0, "bridge": "F", "tunnel": "F" }, "geometry": { "type": "LineString", "coordinates": [ [ 73.809228, 15.3948374 ], [ 73.8099659, 15.3948682 ], [ 73.8100836, 15.3948957 ], [ 73.8101861, 15.3949249 ], [ 73.8103038, 15.3949622 ], [ 73.8104147, 15.3950173 ], [ 73.8105223, 15.3950772 ], [ 73.8106416, 15.3951615 ] ] } },
{ "type": "Feature", "properties": { "osm_id": "655334565", "code": 6101, "fclass": "rail", "name": null, "layer": 0, "bridge": "F", "tunnel": "F" }, "geometry": { "type": "LineString", "coordinates": [ [ 73.8091455, 15.3950864 ], [ 73.8093236, 15.3950378 ], [ 73.8094916, 15.3950118 ], [ 73.809648, 15.3950118 ], [ 73.8098244, 15.3950232 ], [ 73.8099875, 15.3950394 ], [ 73.8101287, 15.3950669 ], [ 73.81029, 15.3951058 ], [ 73.810443, 15.395148 ], [ 73.810638, 15.395195 ], [ 73.8108464, 15.395263 ], [ 73.8115501, 15.3955538 ], [ 73.8119723, 15.3957018 ], [ 73.8131713, 15.3961361 ], [ 73.8140972, 15.3964938 ], [ 73.814376, 15.3966379 ] ] } },
{ "type": "Feature", "properties": { "osm_id": "655334566", "code": 6101, "fclass": "rail", "name": null, "layer": 0, "bridge": "F", "tunnel": "F" }, "geometry": { "type": "LineString", "coordinates": [ [ 73.8108464, 15.395263 ], [ 73.8105069, 15.3951301 ], [ 73.8102396, 15.3950459 ], [ 73.8100682, 15.395007 ], [ 73.8099337, 15.3949956 ], [ 73.8095992, 15.3949746 ], [ 73.8090882, 15.3949616 ] ] } },
{ "type": "Feature", "properties": { "osm_id": "655334567", "code": 6101, "fclass": "rail", "name": null, "layer": 0, "bridge": "F", "tunnel": "F" }, "geometry": { "type": "LineString", "coordinates": [ [ 73.809095, 15.3949276 ], [ 73.8098665, 15.3949503 ], [ 73.8099757, 15.39496 ], [ 73.8100883, 15.3949794 ], [ 73.8102228, 15.3950151 ], [ 73.8105069, 15.3951301 ] ] } },
{ "type": "Feature", "properties": { "osm_id": "655334568", "code": 6101, "fclass": "rail", "name": null, "layer": 0, "bridge": "F", "tunnel": "F" }, "geometry": { "type": "LineString", "coordinates": [ [ 73.8085313, 15.3952054 ], [ 73.8086808, 15.3951138 ], [ 73.8088001, 15.395023 ], [ 73.8089262, 15.3949161 ], [ 73.8090371, 15.3947994 ], [ 73.8091397, 15.394673 ], [ 73.8093447, 15.3943959 ], [ 73.8096876, 15.3939324 ], [ 73.8101633, 15.3932599 ] ] } },
{ "type": "Feature", "properties": { "osm_id": "655334569", "code": 6101, "fclass": "rail", "name": null, "layer": 0, "bridge": "F", "tunnel": "F" }, "geometry": { "type": "LineString", "coordinates": [ [ 73.8071244, 15.3960175 ], [ 73.8074288, 15.3958401 ], [ 73.8076707, 15.3956857 ] ] } },
{ "type": "Feature", "properties": { "osm_id": "655415226", "code": 6101, "fclass": "rail", "name": null, "layer": 0, "bridge": "F", "tunnel": "F" }, "geometry": { "type": "LineString", "coordinates": [ [ 73.8069776, 15.3960946 ], [ 73.8068767, 15.3961445 ], [ 73.8066226, 15.3962895 ], [ 73.8064472, 15.3964188 ], [ 73.8062718, 15.3965578 ], [ 73.8060503, 15.3967714 ], [ 73.8058552, 15.3969666 ], [ 73.8056617, 15.3971874 ], [ 73.8054427, 15.3974511 ], [ 73.8052448, 15.3978075 ], [ 73.8050734, 15.3981874 ], [ 73.8050274, 15.3982981 ], [ 73.8049448, 15.3985356 ], [ 73.8049042, 15.3987015 ], [ 73.8048824, 15.3988102 ], [ 73.80487, 15.3989459 ], [ 73.8048618, 15.3990558 ], [ 73.8048525, 15.3992191 ], [ 73.8048608, 15.3993527 ], [ 73.804879, 15.3994894 ], [ 73.8048902, 15.39959 ], [ 73.8049236, 15.3998977 ], [ 73.8049474, 15.4001467 ], [ 73.8049545, 15.4004905 ], [ 73.804959, 15.4012973 ], [ 73.8049662, 15.4021588 ], [ 73.8049664, 15.4027643 ], [ 73.8049639, 15.4030088 ], [ 73.8049427, 15.4031809 ], [ 73.8049141, 15.4033757 ], [ 73.8048737, 15.4035614 ], [ 73.8048095, 15.4038272 ], [ 73.8047644, 15.403983 ], [ 73.8046859, 15.4041893 ], [ 73.8045861, 15.4044162 ], [ 73.8044508, 15.4046567 ], [ 73.8043444, 15.4048164 ], [ 73.804245, 15.4049605 ], [ 73.8041416, 15.4051083 ], [ 73.8040251, 15.4052526 ], [ 73.8038516, 15.4054566 ], [ 73.8036757, 15.4056285 ], [ 73.8035164, 15.4057751 ], [ 73.8033381, 15.4059252 ], [ 73.8031361, 15.4060845 ], [ 73.8029293, 15.406222 ], [ 73.8027629, 15.4063274 ], [ 73.8025466, 15.4064512 ], [ 73.8023374, 15.4065772 ], [ 73.802152, 15.4067216 ], [ 73.8019689, 15.4068751 ], [ 73.801587, 15.4071677 ], [ 73.8014959, 15.4072413 ], [ 73.8008612, 15.4077162 ], [ 73.8002812, 15.4081997 ], [ 73.7997155, 15.4086305 ], [ 73.7990855, 15.4091049 ], [ 73.7988502, 15.4092882 ], [ 73.798652, 15.4094709 ], [ 73.7983858, 15.409714 ], [ 73.798178, 15.4099571 ], [ 73.7980426, 15.4101552 ], [ 73.7979048, 15.4103556 ], [ 73.7977858, 15.4105626 ], [ 73.797697, 15.4107292 ], [ 73.7976153, 15.4108665 ], [ 73.7975172, 15.4110174 ], [ 73.7973841, 15.4111817 ], [ 73.7972697, 15.4113122 ], [ 73.7970596, 15.4115283 ], [ 73.7969241, 15.4116431 ], [ 73.7968004, 15.4117534 ], [ 73.7966393, 15.4118863 ], [ 73.7946545, 15.4133449 ] ] } },
{ "type": "Feature", "properties": { "osm_id": "655415227", "code": 6101, "fclass": "rail", "name": null, "layer": 0, "bridge": "F", "tunnel": "F" }, "geometry": { "type": "LineString", "coordinates": [ [ 73.8060617, 15.3963439 ], [ 73.8063017, 15.3961244 ], [ 73.8065975, 15.3958408 ], [ 73.8068076, 15.3956366 ], [ 73.8070379, 15.3954535 ], [ 73.807759, 15.3948798 ], [ 73.8085473, 15.3942738 ], [ 73.8091087, 15.3938151 ] ] } },
{ "type": "Feature", "properties": { "osm_id": "655415228", "code": 6101, "fclass": "rail", "name": null, "layer": 0, "bridge": "F", "tunnel": "F" }, "geometry": { "type": "LineString", "coordinates": [ [ 73.8079299, 15.3946046 ], [ 73.8081641, 15.3944147 ], [ 73.8083103, 15.3942673 ], [ 73.8084767, 15.3941036 ], [ 73.8085961, 15.3939691 ], [ 73.8087524, 15.3937698 ], [ 73.8089474, 15.393517 ], [ 73.809102, 15.3933112 ], [ 73.8094499, 15.3928104 ] ] } },
{ "type": "Feature", "properties": { "osm_id": "655415229", "code": 6101, "fclass": "rail", "name": null, "layer": 0, "bridge": "F", "tunnel": "F" }, "geometry": { "type": "LineString", "coordinates": [ [ 73.8050734, 15.3981874 ], [ 73.8052102, 15.3976659 ] ] } },
{ "type": "Feature", "properties": { "osm_id": "655415230", "code": 6101, "fclass": "rail", "name": null, "layer": 0, "bridge": "F", "tunnel": "F" }, "geometry": { "type": "LineString", "coordinates": [ [ 73.8048902, 15.39959 ], [ 73.8049832, 15.3999793 ], [ 73.8050045, 15.400165 ], [ 73.8050068, 15.4003438 ], [ 73.8050045, 15.4010703 ], [ 73.8050282, 15.4028074 ], [ 73.8050212, 15.402986 ], [ 73.8050141, 15.4031329 ], [ 73.8049903, 15.4033161 ], [ 73.8049617, 15.4034856 ], [ 73.8049239, 15.4036527 ], [ 73.8048715, 15.4038409 ], [ 73.8048095, 15.404038 ], [ 73.8047382, 15.4042305 ], [ 73.8046766, 15.4043658 ], [ 73.8045909, 15.4045534 ], [ 73.8044815, 15.404737 ], [ 73.8043674, 15.404902 ], [ 73.8042438, 15.4050739 ], [ 73.8041297, 15.4052183 ], [ 73.8039966, 15.4053649 ], [ 73.8038278, 15.4055368 ], [ 73.8036162, 15.4057408 ], [ 73.8034285, 15.4059126 ], [ 73.8032383, 15.4060685 ], [ 73.8030957, 15.4061785 ], [ 73.8028841, 15.4063274 ], [ 73.8026678, 15.4064649 ], [ 73.8025133, 15.4065635 ], [ 73.8023635, 15.4066666 ], [ 73.8019594, 15.4069622 ], [ 73.801648, 15.4072005 ], [ 73.8010157, 15.4076818 ], [ 73.8005474, 15.4080599 ], [ 73.7989062, 15.4093171 ], [ 73.798596, 15.409624 ], [ 73.7983041, 15.4099324 ], [ 73.798122, 15.4101552 ], [ 73.7979889, 15.410333 ], [ 73.7978745, 15.4105266 ], [ 73.7977741, 15.410718 ], [ 73.7976293, 15.4109813 ], [ 73.7975079, 15.4111682 ], [ 73.7974005, 15.41131 ], [ 73.7972826, 15.4114417 ], [ 73.797167, 15.4115599 ], [ 73.7969919, 15.4117174 ], [ 73.7968237, 15.411866 ], [ 73.7966159, 15.4120213 ], [ 73.7962423, 15.4122959 ], [ 73.7947526, 15.4134237 ] ] } },
{ "type": "Feature", "properties": { "osm_id": "655415232", "code": 6101, "fclass": "rail", "name": null, "layer": 0, "bridge": "F", "tunnel": "F" }, "geometry": { "type": "LineString", "coordinates": [ [ 73.8048248, 15.4000321 ], [ 73.8048904, 15.4005043 ], [ 73.8048999, 15.4010909 ], [ 73.8048999, 15.4020351 ], [ 73.8048975, 15.4026538 ], [ 73.8048737, 15.4028739 ], [ 73.8048357, 15.4031511 ], [ 73.8047858, 15.4034537 ], [ 73.8047192, 15.4037378 ], [ 73.804655, 15.403928 ], [ 73.8045576, 15.4041756 ], [ 73.8044721, 15.4043704 ], [ 73.8043319, 15.4046545 ], [ 73.8042402, 15.4048132 ], [ 73.8041422, 15.404973 ], [ 73.8040371, 15.4051329 ], [ 73.8039414, 15.4052657 ], [ 73.8038269, 15.405394 ], [ 73.8037102, 15.4055201 ], [ 73.8035514, 15.4056641 ], [ 73.8032502, 15.4059208 ], [ 73.8030751, 15.4060716 ], [ 73.8027949, 15.4062584 ], [ 73.8025287, 15.4064182 ], [ 73.8022975, 15.4065376 ] ] } },
{ "type": "Feature", "properties": { "osm_id": "655593727", "code": 6101, "fclass": "rail", "name": null, "layer": 0, "bridge": "F", "tunnel": "F" }, "geometry": { "type": "LineString", "coordinates": [ [ 73.8048618, 15.3990558 ], [ 73.8048098, 15.3995564 ], [ 73.8048034, 15.3997772 ], [ 73.8047984, 15.4000092 ], [ 73.8048229, 15.4017662 ], [ 73.8048001, 15.4027024 ], [ 73.8047652, 15.4030855 ], [ 73.8046685, 15.4035515 ], [ 73.8045671, 15.4038922 ], [ 73.8043686, 15.404345 ], [ 73.804253, 15.4045745 ], [ 73.8041374, 15.404777 ], [ 73.8040179, 15.4049688 ], [ 73.8038984, 15.4051335 ], [ 73.8037535, 15.4052978 ], [ 73.8036227, 15.4054306 ], [ 73.8034993, 15.4055547 ], [ 73.803383, 15.4056564 ], [ 73.8032259, 15.40579 ], [ 73.8030711, 15.4059145 ], [ 73.8028966, 15.4060474 ], [ 73.8027629, 15.4061362 ], [ 73.8025403, 15.4062871 ], [ 73.8023437, 15.4064139 ], [ 73.8021622, 15.4065463 ], [ 73.8018159, 15.4068203 ], [ 73.8015341, 15.4070363 ], [ 73.80117, 15.4073152 ], [ 73.8004841, 15.4078407 ], [ 73.7999994, 15.4082269 ], [ 73.7996697, 15.4084896 ], [ 73.7991514, 15.408877 ], [ 73.7988783, 15.4090841 ], [ 73.7987313, 15.4092013 ], [ 73.798561, 15.4093516 ], [ 73.7983345, 15.4095812 ], [ 73.7981453, 15.4097748 ], [ 73.7979749, 15.4099796 ], [ 73.7978698, 15.4101282 ], [ 73.7977601, 15.410315 ], [ 73.7976503, 15.4104749 ], [ 73.7975312, 15.4106392 ], [ 73.7973958, 15.41079 ], [ 73.7972113, 15.4109768 ], [ 73.7970386, 15.4111772 ], [ 73.7968377, 15.4113708 ], [ 73.7966813, 15.4115328 ], [ 73.7964665, 15.4117062 ], [ 73.7962143, 15.4118863 ], [ 73.7959691, 15.4120551 ], [ 73.7956049, 15.4123252 ], [ 73.7951215, 15.4127326 ], [ 73.7949487, 15.4128632 ], [ 73.7947713, 15.4129645 ], [ 73.7945658, 15.4130433 ], [ 73.7943907, 15.4130883 ], [ 73.7941735, 15.4131311 ], [ 73.793954, 15.4131536 ], [ 73.7938186, 15.4131491 ], [ 73.7936365, 15.4131266 ], [ 73.7935688, 15.4131147 ] ] } },
{ "type": "Feature", "properties": { "osm_id": "655593732", "code": 6101, "fclass": "rail", "name": null, "layer": 0, "bridge": "F", "tunnel": "F" }, "geometry": { "type": "LineString", "coordinates": [ [ 73.8021622, 15.4065463 ], [ 73.8023537, 15.4064402 ], [ 73.8025102, 15.4063579 ], [ 73.8028563, 15.4061609 ] ] } },
{ "type": "Feature", "properties": { "osm_id": "655593734", "code": 6101, "fclass": "rail", "name": null, "layer": 0, "bridge": "F", "tunnel": "F" }, "geometry": { "type": "LineString", "coordinates": [ [ 73.8020492, 15.4065406 ], [ 73.8015341, 15.4070363 ] ] } },
{ "type": "Feature", "properties": { "osm_id": "655593736", "code": 6101, "fclass": "rail", "name": null, "layer": 0, "bridge": "F", "tunnel": "F" }, "geometry": { "type": "LineString", "coordinates": [ [ 73.8021062, 15.4066782 ], [ 73.801587, 15.4071677 ] ] } },
{ "type": "Feature", "properties": { "osm_id": "655593738", "code": 6101, "fclass": "rail", "name": null, "layer": 0, "bridge": "F", "tunnel": "F" }, "geometry": { "type": "LineString", "coordinates": [ [ 73.8025466, 15.4064512 ], [ 73.8030957, 15.4061785 ] ] } },
{ "type": "Feature", "properties": { "osm_id": "655593740", "code": 6101, "fclass": "rail", "name": null, "layer": 0, "bridge": "F", "tunnel": "F" }, "geometry": { "type": "LineString", "coordinates": [ [ 73.8010157, 15.4076818 ], [ 73.8014959, 15.4072413 ] ] } },
{ "type": "Feature", "properties": { "osm_id": "655593742", "code": 6101, "fclass": "rail", "name": null, "layer": 0, "bridge": "F", "tunnel": "F" }, "geometry": { "type": "LineString", "coordinates": [ [ 73.8004057, 15.4078207 ], [ 73.80117, 15.4073152 ] ] } },
{ "type": "Feature", "properties": { "osm_id": "655593744", "code": 6101, "fclass": "rail", "name": null, "layer": 0, "bridge": "F", "tunnel": "F" }, "geometry": { "type": "LineString", "coordinates": [ [ 73.7992283, 15.4087142 ], [ 73.7999994, 15.4082269 ] ] } },
{ "type": "Feature", "properties": { "osm_id": "655593746", "code": 6101, "fclass": "rail", "name": null, "layer": 0, "bridge": "F", "tunnel": "F" }, "geometry": { "type": "LineString", "coordinates": [ [ 73.7977601, 15.410315 ], [ 73.7976036, 15.4106369 ], [ 73.7974589, 15.4108733 ], [ 73.7973514, 15.4110061 ], [ 73.7972067, 15.4111547 ], [ 73.7970853, 15.4112875 ], [ 73.7968868, 15.4114698 ], [ 73.7965225, 15.4117692 ], [ 73.7959014, 15.4122307 ], [ 73.7952663, 15.4127124 ], [ 73.7945588, 15.4132504 ] ] } },
{ "type": "Feature", "properties": { "osm_id": "700833709", "code": 6101, "fclass": "rail", "name": null, "layer": 0, "bridge": "F", "tunnel": "F" }, "geometry": { "type": "LineString", "coordinates": [ [ 73.9254613, 15.5099511 ], [ 73.9254677, 15.5100282 ], [ 73.9255274, 15.5111207 ], [ 73.9255794, 15.5119977 ], [ 73.9256404, 15.5129597 ], [ 73.9257118, 15.5135586 ] ] } },
{ "type": "Feature", "properties": { "osm_id": "700833710", "code": 6101, "fclass": "rail", "name": "T70 : Old Goa Tunnel", "layer": -1, "bridge": "F", "tunnel": "T" }, "geometry": { "type": "LineString", "coordinates": [ [ 73.9251324, 15.5032877 ], [ 73.925318, 15.5082154 ] ] } },
{ "type": "Feature", "properties": { "osm_id": "805802325", "code": 6101, "fclass": "rail", "name": null, "layer": 0, "bridge": "T", "tunnel": "F" }, "geometry": { "type": "LineString", "coordinates": [ [ 73.8890395, 15.6138038 ], [ 73.8886936, 15.6145137 ] ] } },
{ "type": "Feature", "properties": { "osm_id": "805802326", "code": 6101, "fclass": "rail", "name": null, "layer": 0, "bridge": "F", "tunnel": "F" }, "geometry": { "type": "LineString", "coordinates": [ [ 73.88112, 15.626936 ], [ 73.8803743, 15.6275536 ], [ 73.8790426, 15.628556 ], [ 73.8771269, 15.6299996 ], [ 73.8750717, 15.6315622 ], [ 73.8745995, 15.6319169 ], [ 73.8745084, 15.6320177 ], [ 73.8743582, 15.6321589 ] ] } },
{ "type": "Feature", "properties": { "osm_id": "914313986", "code": 6101, "fclass": "rail", "name": null, "layer": 0, "bridge": "F", "tunnel": "F" }, "geometry": { "type": "LineString", "coordinates": [ [ 73.8743582, 15.6321589 ], [ 73.8746057, 15.6319761 ], [ 73.8750965, 15.6315978 ], [ 73.876223, 15.6307282 ], [ 73.8771428, 15.6300232 ], [ 73.8795667, 15.6282113 ], [ 73.8804348, 15.6275517 ], [ 73.8808311, 15.6272227 ], [ 73.88112, 15.626936 ] ] } },
{ "type": "Feature", "properties": { "osm_id": "914313987", "code": 6101, "fclass": "rail", "name": null, "layer": 0, "bridge": "F", "tunnel": "F" }, "geometry": { "type": "LineString", "coordinates": [ [ 73.8741477, 15.6324327 ], [ 73.874629, 15.6320302 ], [ 73.8751165, 15.6316252 ], [ 73.876244, 15.6307547 ], [ 73.8771642, 15.6300494 ], [ 73.879588, 15.6282376 ], [ 73.8804568, 15.6275774 ], [ 73.8808536, 15.6272479 ], [ 73.8813514, 15.6268141 ] ] } },
{ "type": "Feature", "properties": { "osm_id": "914313988", "code": 6101, "fclass": "rail", "name": null, "layer": 0, "bridge": "F", "tunnel": "F" }, "geometry": { "type": "LineString", "coordinates": [ [ 73.8741477, 15.6324327 ], [ 73.8746698, 15.6320511 ], [ 73.8751495, 15.631656 ], [ 73.8762727, 15.6307908 ], [ 73.8771934, 15.6300852 ], [ 73.8796171, 15.6282734 ], [ 73.8804869, 15.6276125 ], [ 73.8808845, 15.6272824 ], [ 73.8813514, 15.6268141 ] ] } },
{ "type": "Feature", "properties": { "osm_id": "914313989", "code": 6101, "fclass": "rail", "name": null, "layer": 0, "bridge": "F", "tunnel": "F" }, "geometry": { "type": "LineString", "coordinates": [ [ 73.9254128, 15.4856614 ], [ 73.9253913, 15.4859499 ], [ 73.925343, 15.4865347 ], [ 73.9252029, 15.4875088 ], [ 73.9249658, 15.489119 ], [ 73.9246623, 15.4913306 ], [ 73.9245789, 15.492217 ], [ 73.9245561, 15.4930248 ], [ 73.924577, 15.4939131 ], [ 73.9246329, 15.4945912 ], [ 73.9246966, 15.4953746 ], [ 73.9247225, 15.4971373 ] ] } },
{ "type": "Feature", "properties": { "osm_id": "914313990", "code": 6101, "fclass": "rail", "name": null, "layer": 0, "bridge": "F", "tunnel": "F" }, "geometry": { "type": "LineString", "coordinates": [ [ 73.9253824, 15.4858787 ], [ 73.9252452, 15.4865144 ], [ 73.9250719, 15.4874911 ], [ 73.9248347, 15.4891017 ], [ 73.9245308, 15.4913164 ], [ 73.9244468, 15.4922095 ], [ 73.9244238, 15.4930245 ], [ 73.9244448, 15.4939196 ], [ 73.9245011, 15.4946012 ], [ 73.9245796, 15.4963625 ] ] } },
{ "type": "Feature", "properties": { "osm_id": "914313991", "code": 6101, "fclass": "rail", "name": null, "layer": 0, "bridge": "F", "tunnel": "F" }, "geometry": { "type": "LineString", "coordinates": [ [ 73.9252452, 15.4865144 ], [ 73.9253954, 15.4854315 ] ] } },
{ "type": "Feature", "properties": { "osm_id": "914314313", "code": 6101, "fclass": "rail", "name": null, "layer": 0, "bridge": "F", "tunnel": "F" }, "geometry": { "type": "LineString", "coordinates": [ [ 73.8075441, 15.3957979 ], [ 73.8078699, 15.3957509 ], [ 73.8081366, 15.3956791 ], [ 73.8084348, 15.3956132 ], [ 73.808705, 15.3955705 ], [ 73.808872, 15.3955478 ], [ 73.8090175, 15.3955326 ], [ 73.809135, 15.3955204 ], [ 73.8093741, 15.3955085 ], [ 73.8096296, 15.3955228 ], [ 73.8098361, 15.3955443 ], [ 73.8100299, 15.3955653 ], [ 73.8101134, 15.3955796 ], [ 73.8102754, 15.3956043 ], [ 73.8105082, 15.3956467 ], [ 73.810691, 15.3956968 ], [ 73.8110447, 15.3958048 ], [ 73.8134582, 15.3966886 ], [ 73.8155545, 15.3974774 ], [ 73.816556, 15.3978272 ], [ 73.8170888, 15.3979996 ] ] } },
{ "type": "Feature", "properties": { "osm_id": "1212959454", "code": 6101, "fclass": "rail", "name": null, "layer": 1, "bridge": "T", "tunnel": "F" }, "geometry": { "type": "LineString", "coordinates": [ [ 73.8870364, 15.6171874 ], [ 73.8869722, 15.6172702 ] ] } },
{ "type": "Feature", "properties": { "osm_id": "1212959455", "code": 6101, "fclass": "rail", "name": null, "layer": 0, "bridge": "F", "tunnel": "F" }, "geometry": { "type": "LineString", "coordinates": [ [ 73.8886936, 15.6145137 ], [ 73.888424, 15.614979 ], [ 73.887779, 15.616056 ], [ 73.8870364, 15.6171874 ] ] } },
{ "type": "Feature", "properties": { "osm_id": "1262255591", "code": 6101, "fclass": "rail", "name": null, "layer": 0, "bridge": "F", "tunnel": "F" }, "geometry": { "type": "LineString", "coordinates": [ [ 73.9234747, 15.445051 ], [ 73.9244514, 15.4485857 ], [ 73.9248154, 15.4497067 ], [ 73.9251827, 15.450548 ] ] } },
{ "type": "Feature", "properties": { "osm_id": "1262255592", "code": 6101, "fclass": "rail", "name": null, "layer": 1, "bridge": "T", "tunnel": "F" }, "geometry": { "type": "LineString", "coordinates": [ [ 73.9234031, 15.4448033 ], [ 73.9234747, 15.445051 ] ] } },
{ "type": "Feature", "properties": { "osm_id": "1262255593", "code": 6101, "fclass": "rail", "name": null, "layer": 1, "bridge": "T", "tunnel": "F" }, "geometry": { "type": "LineString", "coordinates": [ [ 73.9281499, 15.4710445 ], [ 73.9281499, 15.4711428 ] ] } },
{ "type": "Feature", "properties": { "osm_id": "1262255594", "code": 6101, "fclass": "rail", "name": null, "layer": 0, "bridge": "F", "tunnel": "F" }, "geometry": { "type": "LineString", "coordinates": [ [ 73.9262831, 15.452672 ], [ 73.9264064, 15.4529197 ], [ 73.9269044, 15.4539217 ], [ 73.9273704, 15.4550897 ], [ 73.9277154, 15.4563547 ], [ 73.9279174, 15.4576427 ], [ 73.9279924, 15.4588347 ], [ 73.9280044, 15.4597847 ], [ 73.9281499, 15.4710445 ] ] } },
{ "type": "Feature", "properties": { "osm_id": "1262255595", "code": 6101, "fclass": "rail", "name": null, "layer": 1, "bridge": "T", "tunnel": "F" }, "geometry": { "type": "LineString", "coordinates": [ [ 73.9261812, 15.4524626 ], [ 73.9262831, 15.452672 ] ] } },
{ "type": "Feature", "properties": { "osm_id": "1262255596", "code": 6101, "fclass": "rail", "name": null, "layer": 0, "bridge": "F", "tunnel": "F" }, "geometry": { "type": "LineString", "coordinates": [ [ 73.9256758, 15.451536 ], [ 73.9261812, 15.4524626 ] ] } },
{ "type": "Feature", "properties": { "osm_id": "1262255597", "code": 6101, "fclass": "rail", "name": null, "layer": 1, "bridge": "T", "tunnel": "F" }, "geometry": { "type": "LineString", "coordinates": [ [ 73.9251827, 15.450548 ], [ 73.9256758, 15.451536 ] ] } },
{ "type": "Feature", "properties": { "osm_id": "1262255598", "code": 6101, "fclass": "rail", "name": null, "layer": 0, "bridge": "F", "tunnel": "F" }, "geometry": { "type": "LineString", "coordinates": [ [ 73.9105834, 15.4196388 ], [ 73.9110878, 15.421704 ], [ 73.9112735, 15.4223293 ], [ 73.9115028, 15.4230768 ], [ 73.9118734, 15.4239437 ], [ 73.9126164, 15.4252997 ], [ 73.9133434, 15.4264127 ], [ 73.9195404, 15.4346337 ], [ 73.9202654, 15.4356737 ], [ 73.9208974, 15.4367837 ], [ 73.9214204, 15.4379937 ], [ 73.9218214, 15.4392597 ], [ 73.9221134, 15.4402927 ], [ 73.9225765, 15.4419123 ] ] } },
{ "type": "Feature", "properties": { "osm_id": "1262259770", "code": 6101, "fclass": "rail", "name": null, "layer": 0, "bridge": "F", "tunnel": "F" }, "geometry": { "type": "LineString", "coordinates": [ [ 73.9257367, 15.5141747 ], [ 73.9256914, 15.5151047 ], [ 73.9255734, 15.5162887 ], [ 73.9253134, 15.5175207 ], [ 73.9249113, 15.5186673 ] ] } },
{ "type": "Feature", "properties": { "osm_id": "1262259771", "code": 6101, "fclass": "rail", "name": null, "layer": 1, "bridge": "T", "tunnel": "F" }, "geometry": { "type": "LineString", "coordinates": [ [ 73.9257118, 15.5135586 ], [ 73.9257367, 15.5141747 ] ] } },
{ "type": "Feature", "properties": { "osm_id": "1268992752", "code": 6101, "fclass": "rail", "name": null, "layer": 1, "bridge": "T", "tunnel": "F" }, "geometry": { "type": "LineString", "coordinates": [ [ 73.9225073, 15.5226203 ], [ 73.921678, 15.523807 ], [ 73.920974, 15.524849 ], [ 73.9202744, 15.526022 ] ] } },
{ "type": "Feature", "properties": { "osm_id": "1311207640", "code": 6101, "fclass": "rail", "name": null, "layer": 0, "bridge": "F", "tunnel": "F" }, "geometry": { "type": "LineString", "coordinates": [ [ 73.9192865, 15.528489 ], [ 73.9190895, 15.5291677 ], [ 73.9189568, 15.5298258 ], [ 73.9188502, 15.5306846 ] ] } },
{ "type": "Feature", "properties": { "osm_id": "1311207641", "code": 6101, "fclass": "rail", "name": null, "layer": 0, "bridge": "F", "tunnel": "F" }, "geometry": { "type": "LineString", "coordinates": [ [ 73.9202744, 15.526022 ], [ 73.9199799, 15.5266073 ], [ 73.9197171, 15.527212 ], [ 73.9194757, 15.5278426 ], [ 73.9192865, 15.528489 ] ] } },
{ "type": "Feature", "properties": { "osm_id": "1311408196", "code": 6101, "fclass": "rail", "name": null, "layer": 0, "bridge": "F", "tunnel": "F" }, "geometry": { "type": "LineString", "coordinates": [ [ 73.8743582, 15.6321589 ], [ 73.874089, 15.632412 ], [ 73.873409, 15.633126 ], [ 73.873288, 15.6333471 ] ] } },
{ "type": "Feature", "properties": { "osm_id": "1311408197", "code": 6101, "fclass": "rail", "name": null, "layer": 0, "bridge": "F", "tunnel": "F" }, "geometry": { "type": "LineString", "coordinates": [ [ 73.8813514, 15.6268141 ], [ 73.8819057, 15.6262428 ] ] } },
{ "type": "Feature", "properties": { "osm_id": "1311408198", "code": 6101, "fclass": "rail", "name": null, "layer": 0, "bridge": "F", "tunnel": "F" }, "geometry": { "type": "LineString", "coordinates": [ [ 73.8819057, 15.6262428 ], [ 73.88112, 15.626936 ] ] } },
{ "type": "Feature", "properties": { "osm_id": "1311408206", "code": 6101, "fclass": "rail", "name": null, "layer": 0, "bridge": "F", "tunnel": "F" }, "geometry": { "type": "LineString", "coordinates": [ [ 73.8869722, 15.6172702 ], [ 73.886567, 15.617793 ], [ 73.885997, 15.618638 ], [ 73.885425, 15.619653 ], [ 73.884962, 15.620636 ], [ 73.884701, 15.621229 ], [ 73.884154, 15.622487 ] ] } },
{ "type": "Feature", "properties": { "osm_id": "1311408208", "code": 6101, "fclass": "rail", "name": null, "layer": 0, "bridge": "F", "tunnel": "F" }, "geometry": { "type": "LineString", "coordinates": [ [ 73.873288, 15.6333471 ], [ 73.8741477, 15.6324327 ] ] } },
{ "type": "Feature", "properties": { "osm_id": "1327189212", "code": 6101, "fclass": "rail", "name": null, "layer": 0, "bridge": "T", "tunnel": "F" }, "geometry": { "type": "LineString", "coordinates": [ [ 73.9076888, 15.3991594 ], [ 73.9075251, 15.3995591 ] ] } },
{ "type": "Feature", "properties": { "osm_id": "1327189213", "code": 6101, "fclass": "rail", "name": null, "layer": 0, "bridge": "T", "tunnel": "F" }, "geometry": { "type": "LineString", "coordinates": [ [ 73.9072354, 15.400669 ], [ 73.9070535, 15.4015949 ] ] } },
{ "type": "Feature", "properties": { "osm_id": "1327189214", "code": 6101, "fclass": "rail", "name": null, "layer": 0, "bridge": "F", "tunnel": "F" }, "geometry": { "type": "LineString", "coordinates": [ [ 73.9075251, 15.3995591 ], [ 73.9073414, 15.4001693 ], [ 73.9072354, 15.400669 ] ] } },
{ "type": "Feature", "properties": { "osm_id": "1327189215", "code": 6101, "fclass": "rail", "name": null, "layer": 0, "bridge": "F", "tunnel": "F" }, "geometry": { "type": "LineString", "coordinates": [ [ 73.9070535, 15.4015949 ], [ 73.9069691, 15.4020548 ] ] } },
{ "type": "Feature", "properties": { "osm_id": "1328049585", "code": 6101, "fclass": "rail", "name": null, "layer": 0, "bridge": "F", "tunnel": "F" }, "geometry": { "type": "LineString", "coordinates": [ [ 73.8176924, 15.3981976 ], [ 73.8176482, 15.3981858 ], [ 73.8173127, 15.3980777 ], [ 73.8170888, 15.3979996 ], [ 73.8165983, 15.3978123 ], [ 73.8155038, 15.3974134 ], [ 73.812077, 15.3961299 ], [ 73.8111966, 15.3958129 ], [ 73.8108892, 15.3957056 ], [ 73.8106913, 15.3956461 ], [ 73.8105051, 15.3955969 ], [ 73.8102482, 15.3955413 ], [ 73.8100774, 15.3955116 ], [ 73.8098646, 15.3954932 ], [ 73.8095833, 15.3954734 ], [ 73.8093812, 15.3954685 ], [ 73.8091611, 15.3954694 ], [ 73.8089935, 15.3954771 ], [ 73.8088259, 15.3954847 ], [ 73.8086244, 15.3955091 ], [ 73.8084588, 15.3955372 ], [ 73.8083218, 15.395569 ], [ 73.8080977, 15.395611 ], [ 73.8079601, 15.3956579 ], [ 73.8077104, 15.3957395 ], [ 73.8075441, 15.3957979 ], [ 73.8071244, 15.3960175 ], [ 73.8069776, 15.3960946 ] ] } },
{ "type": "Feature", "properties": { "osm_id": "1328049586", "code": 6101, "fclass": "rail", "name": null, "layer": 1, "bridge": "T", "tunnel": "F" }, "geometry": { "type": "LineString", "coordinates": [ [ 73.8178536, 15.3982403 ], [ 73.8177584, 15.3982151 ], [ 73.8176924, 15.3981976 ] ] } },
{ "type": "Feature", "properties": { "osm_id": "1328049587", "code": 6101, "fclass": "rail", "name": null, "layer": 1, "bridge": "T", "tunnel": "F" }, "geometry": { "type": "LineString", "coordinates": [ [ 73.8177584, 15.3982151 ], [ 73.8178614, 15.3982267 ] ] } },
{ "type": "Feature", "properties": { "osm_id": "1328049588", "code": 6101, "fclass": "rail", "name": null, "layer": 0, "bridge": "F", "tunnel": "F" }, "geometry": { "type": "LineString", "coordinates": [ [ 73.8224259, 15.3960123 ], [ 73.8223213, 15.3962633 ], [ 73.8222001, 15.3965027 ], [ 73.8220931, 15.3966815 ], [ 73.8219837, 15.3968614 ], [ 73.8218649, 15.3970046 ], [ 73.8217365, 15.397149 ], [ 73.8216391, 15.397243 ], [ 73.8214584, 15.3974034 ], [ 73.8212968, 15.3975318 ], [ 73.8211446, 15.3976372 ], [ 73.8209687, 15.3977541 ], [ 73.8205793, 15.3979891 ], [ 73.8204058, 15.3980578 ], [ 73.8201752, 15.3981335 ], [ 73.8199708, 15.3981931 ], [ 73.8197782, 15.3982412 ], [ 73.8195595, 15.3982801 ], [ 73.8193356, 15.3983095 ], [ 73.8190832, 15.3983471 ], [ 73.8188631, 15.3983552 ], [ 73.8185884, 15.3983493 ], [ 73.8184145, 15.3982965 ], [ 73.8181439, 15.3982495 ], [ 73.8179758, 15.3982171 ], [ 73.8178765, 15.3981892 ] ] } },
{ "type": "Feature", "properties": { "osm_id": "1328049589", "code": 6101, "fclass": "rail", "name": null, "layer": 1, "bridge": "T", "tunnel": "F" }, "geometry": { "type": "LineString", "coordinates": [ [ 73.8178765, 15.3981892 ], [ 73.8177326, 15.3981482 ] ] } },
{ "type": "Feature", "properties": { "osm_id": "1335281057", "code": 6101, "fclass": "rail", "name": null, "layer": 0, "bridge": "F", "tunnel": "F" }, "geometry": { "type": "LineString", "coordinates": [ [ 73.884154, 15.622487 ], [ 73.883766, 15.623327 ], [ 73.8833037, 15.6243492 ], [ 73.8826427, 15.6253262 ], [ 73.8819057, 15.6262428 ] ] } },
{ "type": "Feature", "properties": { "osm_id": "1349188946", "code": 6101, "fclass": "rail", "name": null, "layer": 0, "bridge": "F", "tunnel": "F" }, "geometry": { "type": "LineString", "coordinates": [ [ 73.925318, 15.5082154 ], [ 73.9254613, 15.5099511 ] ] } },
{ "type": "Feature", "properties": { "osm_id": "1381591494", "code": 6101, "fclass": "rail", "name": null, "layer": 0, "bridge": "F", "tunnel": "F" }, "geometry": { "type": "LineString", "coordinates": [ [ 73.9226379, 15.4421271 ], [ 73.9234031, 15.4448033 ] ] } },
{ "type": "Feature", "properties": { "osm_id": "1381591495", "code": 6101, "fclass": "rail", "name": null, "layer": 1, "bridge": "T", "tunnel": "F" }, "geometry": { "type": "LineString", "coordinates": [ [ 73.9225765, 15.4419123 ], [ 73.9226379, 15.4421271 ] ] } },
{ "type": "Feature", "properties": { "osm_id": "1393452411", "code": 6101, "fclass": "rail", "name": null, "layer": 0, "bridge": "F", "tunnel": "T" }, "geometry": { "type": "LineString", "coordinates": [ [ 73.7935718, 15.4130763 ], [ 73.7934987, 15.4130703 ], [ 73.7931625, 15.4130208 ], [ 73.7929585, 15.4129959 ] ] } },
{ "type": "Feature", "properties": { "osm_id": "1393452413", "code": 6101, "fclass": "rail", "name": null, "layer": 0, "bridge": "F", "tunnel": "T" }, "geometry": { "type": "LineString", "coordinates": [ [ 73.7935688, 15.4131147 ], [ 73.7934567, 15.4130951 ], [ 73.7931625, 15.4130208 ] ] } }
]
}
