{
"type": "FeatureCollection",
"name": "Taluk_Boundary",
"crs": { "type": "name", "properties": { "name": "urn:ogc:def:crs:OGC:1.3:CRS84" } },
"features": [
{ "type": "Feature", "properties": { "Id": 0 }, "geometry": { "type": "Polygon", "coordinates": [ [ [ 73.887020017000097, 15.681956083000063 ], [ 73.887459276000115, 15.68190416100003 ], [ 73.887776425000055, 15.68190452300006 ], [ 73.88807064500007, 15.681886465000076 ], [ 73.888569046, 15.681921281000026 ], [ 73.889095663000063, 15.681947485000062 ], [ 73.890050978000048, 15.681998411000013 ], [ 73.890396178000103, 15.681994764000066 ], [ 73.890429036000072, 15.681981705000052 ], [ 73.890637777000023, 15.682052719000065 ], [ 73.890670927000016, 15.682021591000066 ], [ 73.892493258000073, 15.681534625 ], [ 73.895485677000039, 15.681653095000041 ], [ 73.895695577000083, 15.681367177 ], [ 73.895849026000079, 15.68111195300003 ], [ 73.895854403000087, 15.681066845000029 ], [ 73.895930260000057, 15.680995786000011 ], [ 73.89605156500005, 15.680708444000039 ], [ 73.896191954000031, 15.680394369000076 ], [ 73.896229927000064, 15.680074145000049 ], [ 73.896305253000079, 15.67974544700003 ], [ 73.896341176000121, 15.679547184000057 ], [ 73.896451702000036, 15.679350136 ], [ 73.896817935000044, 15.678912950000072 ], [ 73.896922060000051, 15.678824153 ], [ 73.897335669000071, 15.678631757000076 ], [ 73.897528075000096, 15.678557932 ], [ 73.897763607000044, 15.678412466000051 ], [ 73.897993555000056, 15.67833016900008 ], [ 73.898228650000064, 15.678211804000057 ], [ 73.899631378000038, 15.676005860000057 ], [ 73.899918134000046, 15.675020770000085 ], [ 73.90067443, 15.672411836000048 ], [ 73.902989146000039, 15.668625019000075 ], [ 73.904071157000033, 15.667200322000056 ], [ 73.904219229000034, 15.666131814000021 ], [ 73.90412221200009, 15.666076054000026 ], [ 73.904109231000078, 15.666057515 ], [ 73.9037896090001, 15.665601053000071 ], [ 73.903670470000108, 15.665183496000072 ], [ 73.903567096000074, 15.664657843000011 ], [ 73.903479574000116, 15.664313204000095 ], [ 73.903447811000063, 15.664258361000087 ], [ 73.903178772, 15.663314480000061 ], [ 73.903071947000058, 15.663001082000065 ], [ 73.903039353000025, 15.662716001000014 ], [ 73.902955541000011, 15.662425484000046 ], [ 73.902934362000039, 15.662294108000012 ], [ 73.90286229400003, 15.662139412 ], [ 73.902804973000073, 15.66193520200007 ], [ 73.902471930000061, 15.661202588000027 ], [ 73.90230938800002, 15.66059017500007 ], [ 73.902279100000086, 15.660449651 ], [ 73.902280499000028, 15.660359309000064 ], [ 73.902371669000019, 15.659633263000032 ], [ 73.90242138400005, 15.659448796000046 ], [ 73.902453899000079, 15.659341731000069 ], [ 73.902559401000104, 15.658994639000039 ], [ 73.902616744000042, 15.658335845000064 ], [ 73.902564470000073, 15.658113678000067 ], [ 73.902511527000044, 15.657927552000032 ], [ 73.902407681000071, 15.657722671000045 ], [ 73.902275878000083, 15.657512782 ], [ 73.902011586000071, 15.657133701000074 ], [ 73.901823379000035, 15.656950117000072 ], [ 73.90174959900007, 15.656899174000031 ], [ 73.901534793000053, 15.656633844000016 ], [ 73.901485978000011, 15.656484051000056 ], [ 73.901131437000075, 15.655922849000074 ], [ 73.90126866500006, 15.655513772000067 ], [ 73.901584179000054, 15.655044151000023 ], [ 73.90223015600003, 15.654615880000026 ], [ 73.90228646000007, 15.654305040000065 ], [ 73.902186065000123, 15.65389229600002 ], [ 73.901421186000064, 15.652186265000083 ], [ 73.901039038000064, 15.65188661300007 ], [ 73.899773315000061, 15.651157781000073 ], [ 73.89855229600002, 15.650538107000049 ], [ 73.897697179000048, 15.650077695000057 ], [ 73.897188329000045, 15.649541147000072 ], [ 73.896541436000078, 15.649183250000036 ], [ 73.896170124, 15.649073603000023 ], [ 73.895615415000023, 15.64906509700003 ], [ 73.895255369000083, 15.649122839000011 ], [ 73.894921340000067, 15.649298370000057 ], [ 73.894581062000057, 15.649577734000079 ], [ 73.894061014000016, 15.649723350000048 ], [ 73.893531065000047, 15.64962483799998 ], [ 73.893070313000024, 15.649567948000069 ], [ 73.892719910000082, 15.649612301 ], [ 73.892213798000043, 15.649758132000084 ], [ 73.891337478000096, 15.650020163 ], [ 73.890848036000094, 15.650012555000085 ], [ 73.890319144000031, 15.64984623200009 ], [ 73.889715348000081, 15.649412317000071 ], [ 73.888925763000032, 15.64893926800001 ], [ 73.888176624000039, 15.648272509 ], [ 73.887336296000058, 15.647767003000094 ], [ 73.885496847000098, 15.646762627000037 ], [ 73.884806102000056, 15.646801589000063 ], [ 73.884101537000021, 15.646831383000041 ], [ 73.883329312000072, 15.646995567000037 ], [ 73.882606979000087, 15.647255533000052 ], [ 73.882170772000052, 15.647122301000042 ], [ 73.880747606000071, 15.646612216000026 ], [ 73.880863405000056, 15.645814283000085 ], [ 73.880914483000112, 15.645263818000014 ], [ 73.880854921000065, 15.644915059000024 ], [ 73.880818365000067, 15.644589183000061 ], [ 73.880827436000104, 15.644038138000031 ], [ 73.880974893000044, 15.643294959000091 ], [ 73.881899020000034, 15.642676706 ], [ 73.882492986000074, 15.642288348000026 ], [ 73.883203877, 15.641883635000024 ], [ 73.883776638000057, 15.641648604000029 ], [ 73.884270532000059, 15.641669755000091 ], [ 73.884877772000038, 15.641886969000034 ], [ 73.885377258000062, 15.642138728000081 ], [ 73.886366981000066, 15.642348289000012 ], [ 73.886064558000086, 15.63976829100006 ], [ 73.885908151000109, 15.638789902000021 ], [ 73.88599546500005, 15.638298769000063 ], [ 73.886130846000057, 15.638007252000012 ], [ 73.886319852000071, 15.637856509000063 ], [ 73.886645367, 15.637626681000054 ], [ 73.887111526000112, 15.63735373600003 ], [ 73.887422995000037, 15.637128156000106 ], [ 73.887919125000053, 15.636724619000024 ], [ 73.888057942000088, 15.636509855000018 ], [ 73.88838301800007, 15.636022515000018 ], [ 73.888572251000099, 15.635858174000099 ], [ 73.888987766000099, 15.635543831000025 ], [ 73.889446319000029, 15.635166925000014 ], [ 73.889770122000087, 15.63475622900005 ], [ 73.889895939000013, 15.634478098000042 ], [ 73.889863522000084, 15.634179343000014 ], [ 73.88972050100007, 15.633802160000069 ], [ 73.889598306000082, 15.633298753000073 ], [ 73.890879631000047, 15.633350161000063 ], [ 73.890750578000024, 15.63240846200004 ], [ 73.890565015000035, 15.631501915000083 ], [ 73.890446174000061, 15.630795219000053 ], [ 73.890454625000061, 15.630280340000084 ], [ 73.89119499100012, 15.630341417000075 ], [ 73.892376021000047, 15.630540407000108 ], [ 73.89326345000002, 15.630730355000015 ], [ 73.893882999000127, 15.630766983000026 ], [ 73.894417408000024, 15.630594495000054 ], [ 73.894927855000063, 15.630462308000041 ], [ 73.895647831000048, 15.630342402000068 ], [ 73.896056813000044, 15.63042555000002 ], [ 73.896389375000112, 15.630331251000033 ], [ 73.897022897000042, 15.629798893000039 ], [ 73.89731978, 15.629609177000063 ], [ 73.897914781000026, 15.629437590000077 ], [ 73.898592146000027, 15.629357694000038 ], [ 73.899475069000076, 15.629823057000085 ], [ 73.899650372000011, 15.629929820000037 ], [ 73.900753875000106, 15.630601868000042 ], [ 73.902239702000031, 15.631270831000059 ], [ 73.90321631000009, 15.63171047500002 ], [ 73.904114325000052, 15.632108362000078 ], [ 73.904477944000035, 15.632398641000027 ], [ 73.904825917000053, 15.633072632000015 ], [ 73.905354323000068, 15.633835267000055 ], [ 73.905560103000042, 15.634082423000077 ], [ 73.905815698000055, 15.634136048000073 ], [ 73.906069397000081, 15.634022476 ], [ 73.906439904000095, 15.633888065000072 ], [ 73.90706653000008, 15.633780268000034 ], [ 73.907666921000015, 15.63384367200004 ], [ 73.908060272000057, 15.634030475000042 ], [ 73.908535544000117, 15.634331458000077 ], [ 73.909123177000069, 15.634896173000083 ], [ 73.910279189000065, 15.636630825000079 ], [ 73.910355146000043, 15.636546120000087 ], [ 73.910709861000072, 15.636244385000079 ], [ 73.91110568700006, 15.63570371600002 ], [ 73.911216982000028, 15.635436778000049 ], [ 73.91126102900003, 15.635331132000012 ], [ 73.911280656000059, 15.634983533000028 ], [ 73.911100257000044, 15.634325618000037 ], [ 73.91091223100004, 15.634128432000065 ], [ 73.909878182000099, 15.63349360100003 ], [ 73.90892937400011, 15.633063353000047 ], [ 73.908319257000073, 15.632733242 ], [ 73.907988333000048, 15.632439031000082 ], [ 73.907882919000031, 15.632044287000017 ], [ 73.907892653000033, 15.631732686000081 ], [ 73.908024617000123, 15.631364272000063 ], [ 73.908437645, 15.630914231000041 ], [ 73.908950558000086, 15.630054631000061 ], [ 73.909064376000089, 15.629654320000068 ], [ 73.909124927000036, 15.629085952000025 ], [ 73.909090082, 15.628651695000066 ], [ 73.909067568000083, 15.628601658000012 ], [ 73.909035372000091, 15.62857397700003 ], [ 73.908980190000051, 15.628523440000023 ], [ 73.908639586000021, 15.627976115000035 ], [ 73.908088550000087, 15.627452563000059 ], [ 73.907625750000065, 15.626672852000027 ], [ 73.907582003000087, 15.626211291000029 ], [ 73.907720550000093, 15.625720942000047 ], [ 73.908043803000027, 15.625341878000036 ], [ 73.908637495000022, 15.624962555 ], [ 73.908959030000076, 15.624687324000057 ], [ 73.909028826000082, 15.624621745000049 ], [ 73.909338859000059, 15.624330443000105 ], [ 73.909439294000023, 15.62412797400005 ], [ 73.909452135000024, 15.62410208800004 ], [ 73.909408471000049, 15.623794749000101 ], [ 73.909267149000073, 15.623509430000031 ], [ 73.908979521000077, 15.623227839 ], [ 73.908662941000088, 15.623124085000033 ], [ 73.907742430000042, 15.623240896000016 ], [ 73.90726169900006, 15.622704864000074 ], [ 73.90677824200003, 15.622616113000014 ], [ 73.906320215000051, 15.622396763000072 ], [ 73.90613275200009, 15.622167943000058 ], [ 73.906067584000112, 15.621882345000053 ], [ 73.906018451000037, 15.621461376000038 ], [ 73.906043042000121, 15.621104857000027 ], [ 73.906044889000015, 15.620702735000062 ], [ 73.90583381200004, 15.620211609000016 ], [ 73.905807205000059, 15.618986735000011 ], [ 73.906199366000095, 15.618387331000065 ], [ 73.906636408000011, 15.617892618999988 ], [ 73.907096237000047, 15.617429814000065 ], [ 73.907186442000054, 15.617047106000019 ], [ 73.907189759000062, 15.616559224000063 ], [ 73.907393547000041, 15.616069887999988 ], [ 73.907486283000082, 15.6155291480001 ], [ 73.907389951000098, 15.615148115000103 ], [ 73.907466927000073, 15.614639301000103 ], [ 73.907484055000069, 15.614526082000062 ], [ 73.907735934000044, 15.614236254000062 ], [ 73.908080227000099, 15.613993122000107 ], [ 73.908745560000085, 15.613506337000064 ], [ 73.90802621300007, 15.613020850000041 ], [ 73.90727098500011, 15.61301831 ], [ 73.906890800000014, 15.613170639 ], [ 73.906260437000086, 15.613228659000093 ], [ 73.9058442030001, 15.613023574000088 ], [ 73.905207395000076, 15.612905286000071 ], [ 73.904358848000044, 15.612905847000029 ], [ 73.903073127000056, 15.613130014000014 ], [ 73.902083257000044, 15.61350783200001 ], [ 73.90112390600008, 15.613154213000062 ], [ 73.900089067000067, 15.612573543000067 ], [ 73.899763873000083, 15.612220607 ], [ 73.899763325000038, 15.611398307000083 ], [ 73.899581057000049, 15.610857900000045 ], [ 73.899027574000087, 15.610212248 ], [ 73.898320141000085, 15.609568894000063 ], [ 73.897723747000029, 15.609261539000034 ], [ 73.896333154000075, 15.608770264000064 ], [ 73.895985186000061, 15.608950029000017 ], [ 73.894863179000041, 15.609994507000106 ], [ 73.893765324000071, 15.6098420060001 ], [ 73.893299837000015, 15.610083387 ], [ 73.89275217800008, 15.610504011000074 ], [ 73.890391854000015, 15.612848613 ], [ 73.889559759000093, 15.612980343000064 ], [ 73.887379451000072, 15.613163479000029 ], [ 73.887422455, 15.612251488000066 ], [ 73.887495164000057, 15.611800785000078 ], [ 73.887651987000069, 15.611337889000058 ], [ 73.88783619400003, 15.610911551000044 ], [ 73.887836641000064, 15.610599816 ], [ 73.887651301000105, 15.61024452 ], [ 73.887030384000056, 15.610013575 ], [ 73.88643372000007, 15.609724170000032 ], [ 73.886204618000036, 15.609481163000087 ], [ 73.88607108300009, 15.609099632000049 ], [ 73.886179824000024, 15.608721763000048 ], [ 73.886595056000019, 15.608140881000036 ], [ 73.887143624000018, 15.607385809000089 ], [ 73.887859969000047, 15.606917998000018 ], [ 73.889372160000022, 15.606534760000017 ], [ 73.890017692000058, 15.606115477000053 ], [ 73.890862943000087, 15.605179729000078 ], [ 73.891394219000077, 15.604163725000035 ], [ 73.891575366000055, 15.603817283000058 ], [ 73.891851086000045, 15.603207088000019 ], [ 73.891688284000082, 15.60205254900006 ], [ 73.891434733000054, 15.601027479000066 ], [ 73.89134022000006, 15.600538112000077 ], [ 73.891707262000054, 15.600046855000109 ], [ 73.892076499000041, 15.599709151000056 ], [ 73.892836774000074, 15.599400114000066 ], [ 73.893616872000038, 15.599023603 ], [ 73.894078134000011, 15.59875514200008 ], [ 73.894713943000042, 15.598642921000121 ], [ 73.894972550000034, 15.598796002 ], [ 73.895500002000063, 15.598754523000029 ], [ 73.896349055000059, 15.598153141000097 ], [ 73.896558341000059, 15.597614231 ], [ 73.896509043000066, 15.596926668000048 ], [ 73.896462211000099, 15.596370254000018 ], [ 73.896366374000081, 15.595392934000067 ], [ 73.896069042000079, 15.59391099600002 ], [ 73.89542618500009, 15.592464335000049 ], [ 73.894733089000027, 15.591238294000036 ], [ 73.894345979000065, 15.590396462000015 ], [ 73.893769989000106, 15.589705391000034 ], [ 73.892828752000113, 15.589117059000028 ], [ 73.891816045000084, 15.588898115000031 ], [ 73.891402014000022, 15.58885111500005 ], [ 73.890758277000046, 15.588872755000065 ], [ 73.890348552000077, 15.588563689000072 ], [ 73.889862794000024, 15.588054685000056 ], [ 73.889358833000074, 15.587518298000084 ], [ 73.888988937000107, 15.587051794000033 ], [ 73.888550753000089, 15.585915515000075 ], [ 73.888437146000015, 15.58489266 ], [ 73.88852766100004, 15.584487505000048 ], [ 73.888758731000067, 15.584043814000019 ], [ 73.888984778000037, 15.583622634000076 ], [ 73.88898522100007, 15.58331090600004 ], [ 73.888940981000047, 15.582600837 ], [ 73.888208125000077, 15.581527788000031 ], [ 73.88749041200002, 15.581241080000023 ], [ 73.887399450000046, 15.579970177000028 ], [ 73.887194497000053, 15.579393217000074 ], [ 73.887145118000049, 15.578145533000047 ], [ 73.887096195000083, 15.576875268000016 ], [ 73.88725808500007, 15.576385266000063 ], [ 73.887624268000081, 15.575939193000103 ], [ 73.88805979100006, 15.575534737000034 ], [ 73.888588367000096, 15.575140812000036 ], [ 73.888933226000034, 15.5745769490001 ], [ 73.888702151000089, 15.573891170000024 ], [ 73.888472886000045, 15.573377093000033 ], [ 73.888750175000069, 15.57295674100007 ], [ 73.88929711000003, 15.572576588000057 ], [ 73.890033935000062, 15.572551891000057 ], [ 73.890585747000074, 15.572727561000026 ], [ 73.891231121, 15.572597490000099 ], [ 73.891709959000096, 15.572103452 ], [ 73.891617380000071, 15.571505596000083 ], [ 73.892625149000054, 15.57087959899998 ], [ 73.892815612000092, 15.571483394000023 ], [ 73.893846643000046, 15.571996265000092 ], [ 73.893915355000047, 15.57198919800004 ], [ 73.894304154000068, 15.571949214000018 ], [ 73.894737752000054, 15.571657674000054 ], [ 73.895945148000038, 15.572214003000077 ], [ 73.896035284000035, 15.572974351000017 ], [ 73.896657175000072, 15.573417697000018 ], [ 73.896407950000054, 15.573843069000041 ], [ 73.896912030000109, 15.57493057500005 ], [ 73.897435796000096, 15.575110337000091 ], [ 73.897853753000035, 15.574637820000074 ], [ 73.898628865000049, 15.574844020000082 ], [ 73.899274381000083, 15.574415749 ], [ 73.899852675000048, 15.574682148000011 ], [ 73.901109815000069, 15.574484690000105 ], [ 73.901597592000016, 15.574013361 ], [ 73.901689854000011, 15.573504248000074 ], [ 73.901620139000016, 15.572924886000099 ], [ 73.901154486000024, 15.57232579900009 ], [ 73.901389393000017, 15.571077987000052 ], [ 73.901412510000057, 15.570522701000115 ], [ 73.901708619000047, 15.569804322 ], [ 73.901864048000036, 15.568848973000097 ], [ 73.902344415000073, 15.567130541000022 ], [ 73.902642821000072, 15.566552306000052 ], [ 73.903149188000043, 15.56608578 ], [ 73.904115561000069, 15.565707573000058 ], [ 73.904551699000095, 15.565540353000078 ], [ 73.904987958000049, 15.565373073 ], [ 73.905056661000046, 15.565299456000041 ], [ 73.905424382, 15.564905430000035 ], [ 73.905627858000059, 15.564434223000038 ], [ 73.905466584000038, 15.564034168000067 ], [ 73.905053031000094, 15.56339073200003 ], [ 73.904734756000053, 15.56289790900011 ], [ 73.904640189000048, 15.562413114000055 ], [ 73.905142267000016, 15.562208507 ], [ 73.905808874000016, 15.561916004000047 ], [ 73.905995459000096, 15.561340615000045 ], [ 73.905856497000059, 15.560714980000061 ], [ 73.905923426000086, 15.559758299000041 ], [ 73.905831153000094, 15.559133365000026 ], [ 73.90567014, 15.558715309999986 ], [ 73.905075158000059, 15.558335643000103 ], [ 73.904336453000056, 15.557908639000033 ], [ 73.904085179000049, 15.557597563000051 ], [ 73.904038928000034, 15.557289657000066 ], [ 73.904611082000031, 15.55678792300003 ], [ 73.905779580000086, 15.556299928000065 ], [ 73.906265833000077, 15.555923396 ], [ 73.906698768000112, 15.555383332000076 ], [ 73.906651027000066, 15.554316416000084 ], [ 73.906559888000075, 15.553334689000035 ], [ 73.90695326200003, 15.552644945000075 ], [ 73.907756010000099, 15.551722080000012 ], [ 73.909344142000052, 15.550653232000037 ], [ 73.910602916000116, 15.550053621000075 ], [ 73.910997107000043, 15.549603324000032 ], [ 73.911176029000018, 15.549208533000051 ], [ 73.911269267000094, 15.548066935000097 ], [ 73.911724598000021, 15.547581502000078 ], [ 73.912163478000096, 15.547244908000028 ], [ 73.912283295000051, 15.54719138500004 ], [ 73.913815995000036, 15.546506697000055 ], [ 73.915996313000051, 15.545126080000042 ], [ 73.917579291000024, 15.544075077000034 ], [ 73.918447715000113, 15.543406149000109 ], [ 73.918819579000058, 15.542892348000052 ], [ 73.919163415000085, 15.54238255400006 ], [ 73.920397834000084, 15.540418162000062 ], [ 73.921199859000097, 15.539526864000035 ], [ 73.921777398000103, 15.539260178000085 ], [ 73.922413273000046, 15.539099493000023 ], [ 73.922923940000018, 15.538970447000093 ], [ 73.924440787000023, 15.538257230000056 ], [ 73.925381191000028, 15.537453907000025 ], [ 73.926270334000051, 15.53640640500004 ], [ 73.926573733000026, 15.536048966000042 ], [ 73.927669727000108, 15.535424233000043 ], [ 73.928842319000054, 15.534958664000069 ], [ 73.928962132000024, 15.534974376000037 ], [ 73.929349126000062, 15.535025121000061 ], [ 73.931554786000035, 15.536088798000051 ], [ 73.934981348000051, 15.537735760000075 ], [ 73.940470429000086, 15.541519237000038 ], [ 73.947163035000059, 15.54756613600005 ], [ 73.947940852000031, 15.547853308000096 ], [ 73.949253384, 15.548280037000055 ], [ 73.951156336000068, 15.54847594200001 ], [ 73.952373818000083, 15.547830263000055 ], [ 73.955723549000126, 15.545870464000082 ], [ 73.956767650000103, 15.544991706000115 ], [ 73.958277527000064, 15.542963447000073 ], [ 73.962212521000126, 15.538794236000079 ], [ 73.960621920000051, 15.537722089000098 ], [ 73.958536310000071, 15.536425698000038 ], [ 73.958137676000035, 15.536004016000053 ], [ 73.958008027000048, 15.535374145000073 ], [ 73.958101068000119, 15.534801769000055 ], [ 73.958229538000083, 15.534347465000035 ], [ 73.958056521000074, 15.533802702000081 ], [ 73.956778522000022, 15.532134460000073 ], [ 73.955608338, 15.530427141000118 ], [ 73.955079146000102, 15.529429784000019 ], [ 73.954767876000105, 15.527920627000029 ], [ 73.954364908000073, 15.526898116000069 ], [ 73.954052597000072, 15.526328619000022 ], [ 73.953471998000083, 15.525917797000048 ], [ 73.952166648000087, 15.525374027000087 ], [ 73.951654402000059, 15.52521042300005 ], [ 73.951142153000049, 15.525046817000014 ], [ 73.950607869000066, 15.524654741000081 ], [ 73.949459210000072, 15.523932561000013 ], [ 73.948404035000067, 15.523482904000023 ], [ 73.947439049000067, 15.523508931000045 ], [ 73.946226718000034, 15.523842920000057 ], [ 73.945701233000079, 15.523780751000064 ], [ 73.945199802000076, 15.523664724000056 ], [ 73.944762871000066, 15.523305697000104 ], [ 73.94473449000003, 15.522758640000049 ], [ 73.944919814000087, 15.522246462000037 ], [ 73.945385226000042, 15.52170237900005 ], [ 73.946283752000056, 15.520889219 ], [ 73.94671890700009, 15.520484733000021 ], [ 73.947418822, 15.519849334000028 ], [ 73.947650006000032, 15.519672069000016 ], [ 73.948924591000065, 15.518069516000025 ], [ 73.94966847700006, 15.517019137999981 ], [ 73.950072262000077, 15.515959126000027 ], [ 73.950103836000025, 15.515444583 ], [ 73.949884633000096, 15.514876550000071 ], [ 73.949636134000045, 15.514393920000018 ], [ 73.949662055000061, 15.513942540000063 ], [ 73.949849864000058, 15.513276799000046 ], [ 73.950622526000046, 15.512457247 ], [ 73.951618379000109, 15.511672702000016 ], [ 73.952083553000051, 15.511431284000025 ], [ 73.953050429000015, 15.510704943000057 ], [ 73.953978725000084, 15.509770309 ], [ 73.954445307000057, 15.509438554000081 ], [ 73.954971525000076, 15.509166407000034 ], [ 73.95543792200003, 15.509137327000115 ], [ 73.956526830000072, 15.509226028000082 ], [ 73.957087478000091, 15.509135086000107 ], [ 73.958297434000016, 15.508647398000079 ], [ 73.959167788000087, 15.507833861000091 ], [ 73.959875239, 15.507008706000029 ], [ 73.96059006500009, 15.505438347000037 ], [ 73.961553175000105, 15.503781380000074 ], [ 73.962202074000061, 15.502539742000103 ], [ 73.962420428, 15.501996418 ], [ 73.962419285000095, 15.501485916000039 ], [ 73.962199, 15.500985653000036 ], [ 73.961606040000035, 15.500773456000065 ], [ 73.960461111000072, 15.500986547000021 ], [ 73.959683424000033, 15.500961272000062 ], [ 73.959031916000043, 15.500626231000052 ], [ 73.957579346000017, 15.499682703000055 ], [ 73.957073897000029, 15.499470426000077 ], [ 73.956773413000036, 15.499325862000017 ], [ 73.956132792000062, 15.498891494000048 ], [ 73.955231514, 15.498435210000043 ], [ 73.954377270000023, 15.497956935000083 ], [ 73.954258806999988, 15.497792556000071 ], [ 73.954140344000052, 15.49762817600006 ], [ 73.954119037000069, 15.497358976000079 ], [ 73.954097730000072, 15.497089868000018 ], [ 73.954203885000069, 15.496572006000068 ], [ 73.954330823000092, 15.495923352000045 ], [ 73.954555734000053, 15.495099435000085 ], [ 73.954652624000076, 15.494744683000043 ], [ 73.95522124200005, 15.493003710000057 ], [ 73.955466023000042, 15.49225423800004 ], [ 73.955701077000043, 15.490676658000073 ], [ 73.955828194000077, 15.490009939000064 ], [ 73.955807651000072, 15.489264245000093 ], [ 73.955830565000014, 15.488415288000017 ], [ 73.955782975000076, 15.48760595100002 ], [ 73.955870846000053, 15.486197783000037 ], [ 73.955696578000115, 15.485445306000038 ], [ 73.955555668, 15.484349902000087 ], [ 73.955547507000034, 15.484286535 ], [ 73.954927976000121, 15.483414372000041 ], [ 73.954311033000053, 15.482668645000068 ], [ 73.952790262000079, 15.48134461500003 ], [ 73.951994977000084, 15.480392961000071 ], [ 73.951592705000024, 15.479334264000048 ], [ 73.95133623700012, 15.477902859 ], [ 73.951145046000107, 15.476467995000036 ], [ 73.951144622000072, 15.47630834900006 ], [ 73.951143723, 15.475971052000041 ], [ 73.951608377000071, 15.474600179000035 ], [ 73.952039288000023, 15.473585778000036 ], [ 73.952489295000049, 15.472838188 ], [ 73.952978120000083, 15.472276387000054 ], [ 73.953385431000115, 15.471862368000082 ], [ 73.95385564800003, 15.471589407000057 ], [ 73.954689459000093, 15.471010198 ], [ 73.955396620000073, 15.470492361000058 ], [ 73.956484733000053, 15.469451779000025 ], [ 73.957170829000063, 15.468499861000044 ], [ 73.957898932, 15.466383151000056 ], [ 73.958154184000065, 15.464702002000045 ], [ 73.958043360000048, 15.463480663000066 ], [ 73.957830471000108, 15.46252426100007 ], [ 73.957037225000107, 15.461446185000042 ], [ 73.955988549000026, 15.460617133000014 ], [ 73.954878920000056, 15.46009897000004 ], [ 73.954048531000097, 15.459887677000054 ], [ 73.952161867000044, 15.45989071900004 ], [ 73.951156833000113, 15.459825818000088 ], [ 73.950497245000065, 15.459707472000066 ], [ 73.949918979000088, 15.45945932200005 ], [ 73.949364710000069, 15.45916625800005 ], [ 73.948790801, 15.458647124 ], [ 73.948145088000047, 15.457670669000027 ], [ 73.947310730000112, 15.45626208600001 ], [ 73.946585128000024, 15.454751301000062 ], [ 73.945945799000071, 15.453092810000062 ], [ 73.945602652, 15.451267134 ], [ 73.945262189000076, 15.448691525000051 ], [ 73.945216304000013, 15.447493744000067 ], [ 73.945301019000098, 15.446284345 ], [ 73.945534968000089, 15.445352806000116 ], [ 73.946286427000089, 15.443814750000044 ], [ 73.946712975000125, 15.44248862900001 ], [ 73.947009081000019, 15.441454113000034 ], [ 73.947077482000083, 15.440682660000064 ], [ 73.946904190000055, 15.439293273000036 ], [ 73.946820792000082, 15.438691143000042 ], [ 73.946522041000051, 15.438153586000062 ], [ 73.945853449000069, 15.437736858000044 ], [ 73.945003095000047, 15.437321952000087 ], [ 73.943874311000087, 15.436848618000091 ], [ 73.943085720000028, 15.436446183000012 ], [ 73.942040420000055, 15.435912732000105 ], [ 73.940859151000012, 15.435519915000022 ], [ 73.940024718000075, 15.435272273000049 ], [ 73.939127566000096, 15.435168341000065 ], [ 73.938187135000092, 15.435144985 ], [ 73.937355082000082, 15.435042010000092 ], [ 73.936537505000018, 15.434912405000027 ], [ 73.935022990000036, 15.434672264000053 ], [ 73.933674764000031, 15.434236082000023 ], [ 73.931989238000014, 15.433347657000056 ], [ 73.930489672000107, 15.432475537000105 ], [ 73.929290857000041, 15.431440836000025 ], [ 73.928224669000016, 15.430272676000094 ], [ 73.927837094000012, 15.429760782000105 ], [ 73.927390245000083, 15.42888671 ], [ 73.927123894000061, 15.428078569 ], [ 73.927060842000088, 15.427372842000057 ], [ 73.927125632000028, 15.42596450300006 ], [ 73.927381409000063, 15.424265390000073 ], [ 73.927442940000091, 15.423344783000019 ], [ 73.927274660000108, 15.42252004000008 ], [ 73.926715392000105, 15.421400272000067 ], [ 73.925713032000033, 15.420029781 ], [ 73.924621129000016, 15.419014815000047 ], [ 73.923658744000065, 15.418055982000027 ], [ 73.922182441000032, 15.416339426000018 ], [ 73.921454329000099, 15.415298345000032 ], [ 73.920516636000059, 15.413391338000075 ], [ 73.918975585000084, 15.410508257000092 ], [ 73.918468506000053, 15.409339973000062 ], [ 73.924813711000056, 15.407424557000031 ], [ 73.92674001200001, 15.406788104000039 ], [ 73.927695404000104, 15.406530767000064 ], [ 73.928048493000091, 15.406435660000099 ], [ 73.932860096000041, 15.405645627000101 ], [ 73.936733500000074, 15.405114092000087 ], [ 73.941122796000073, 15.404943704000022 ], [ 73.94521890200005, 15.404245658 ], [ 73.94736760500011, 15.403490489000042 ], [ 73.94909995000009, 15.402183232000059 ], [ 73.94942926700007, 15.401773504000086 ], [ 73.949942059000051, 15.401135495000055 ], [ 73.95019153200009, 15.400825103000042 ], [ 73.950551175000086, 15.399829618000098 ], [ 73.950940271000036, 15.39896168900005 ], [ 73.951195490000018, 15.398392382000019 ], [ 73.951306600000066, 15.398144533000028 ], [ 73.952534145000115, 15.394779681000063 ], [ 73.953270269, 15.393020103000048 ], [ 73.953834248000035, 15.391550848000072 ], [ 73.954183925, 15.390639872000104 ], [ 73.954526547000029, 15.389893205000053 ], [ 73.954579697000071, 15.389590412000047 ], [ 73.9546625790001, 15.389118238000059 ], [ 73.955720946, 15.383088486000045 ], [ 73.955982395000049, 15.381598886000074 ], [ 73.956994615000042, 15.376341803000042 ], [ 73.957000088000058, 15.375241628000051 ], [ 73.957301005, 15.374214589000072 ], [ 73.957441777000014, 15.374027382000037 ], [ 73.956016242, 15.374105736000036 ], [ 73.955375410000016, 15.374140954000019 ], [ 73.953963548000075, 15.374102304000107 ], [ 73.951629912000087, 15.374038388000059 ], [ 73.950176275000061, 15.373638920000047 ], [ 73.948051911000064, 15.372568056 ], [ 73.946994940000096, 15.371701963000099 ], [ 73.946131842000099, 15.370885982000086 ], [ 73.944719804000059, 15.369726846000013 ], [ 73.943295623999987, 15.369980824000066 ], [ 73.941907568000076, 15.370022938 ], [ 73.940460280000053, 15.369982945000064 ], [ 73.93812870000005, 15.369635749000025 ], [ 73.936978810000113, 15.36934276300012 ], [ 73.935909355, 15.369263268000026 ], [ 73.934380359000059, 15.369380020000094 ], [ 73.933540023000077, 15.369520739000013 ], [ 73.932713525000082, 15.369675300000011 ], [ 73.931669220000089, 15.370336954000045 ], [ 73.930078916000056, 15.371649780000045 ], [ 73.929213505000035, 15.371903032000038 ], [ 73.928087915000077, 15.372409875000052 ], [ 73.927181730000058, 15.372879330000082 ], [ 73.926474629000083, 15.373130602000089 ], [ 73.92643650600003, 15.372610471000041 ], [ 73.926678515000077, 15.371182260000086 ], [ 73.926557030000055, 15.370633882000011 ], [ 73.926274700000064, 15.369382870000063 ], [ 73.926057811000049, 15.367545619000015 ], [ 73.925587825000065, 15.36437649300008 ], [ 73.924323782000016, 15.363946123000087 ], [ 73.92325549, 15.364652538 ], [ 73.922669725000034, 15.364318383000068 ], [ 73.922308949000112, 15.36388821 ], [ 73.921825563000084, 15.363551063000084 ], [ 73.921300047000031, 15.36351592800002 ], [ 73.92095963200002, 15.363551403000024 ], [ 73.920477671000114, 15.363986688000068 ], [ 73.920217396000069, 15.364533786000038 ], [ 73.91997153800007, 15.365334054000083 ], [ 73.919792695000112, 15.366311490000044 ], [ 73.919495466000029, 15.366839967000072 ], [ 73.91910521800007, 15.367362536000055 ], [ 73.918587688000059, 15.367404212000039 ], [ 73.918263035000024, 15.366757843000116 ], [ 73.917864488000077, 15.366074231000042 ], [ 73.917536949000066, 15.365603893000028 ], [ 73.917177766000108, 15.365648115000045 ], [ 73.916514051000078, 15.366094132000089 ], [ 73.916349400000044, 15.366195558000044 ], [ 73.916349494000059, 15.366132941000014 ], [ 73.916351142000011, 15.364944361 ], [ 73.91587182800005, 15.363789674000021 ], [ 73.916817914, 15.363731837000032 ], [ 73.916532518000096, 15.362385914000047 ], [ 73.916172549000066, 15.361332481000016 ], [ 73.915888154000072, 15.360216944000086 ], [ 73.915689334000049, 15.359563424000015 ], [ 73.915665920000066, 15.358998445000076 ], [ 73.915746933000023, 15.358313070000033 ], [ 73.915887673000029, 15.357958424000088 ], [ 73.916110917000125, 15.357690836000064 ], [ 73.914944574000074, 15.357555474000055 ], [ 73.914925194000062, 15.356462066000091 ], [ 73.911963321000044, 15.355951338000111 ], [ 73.912228223000028, 15.35483969900006 ], [ 73.912266138000064, 15.354230471000012 ], [ 73.912204854000052, 15.353705580000014 ], [ 73.91206358800008, 15.35323369300005 ], [ 73.912566129000098, 15.352961354000076 ], [ 73.911846811, 15.350827309000074 ], [ 73.911263308000045, 15.350922268000026 ], [ 73.911160801000079, 15.3483640430001 ], [ 73.911602487000039, 15.348108851000035 ], [ 73.911830084000044, 15.347854885000071 ], [ 73.912045137000064, 15.347230306 ], [ 73.912207851000034, 15.346957286000055 ], [ 73.912390335000026, 15.346896873000031 ], [ 73.912815221000102, 15.34682208400006 ], [ 73.912914330000049, 15.346737734 ], [ 73.91303604400008, 15.346409798000053 ], [ 73.913113627000016, 15.345647697000057 ], [ 73.913262419000063, 15.345378929000024 ], [ 73.913415719000056, 15.345110259 ], [ 73.913820026000025, 15.344579024 ], [ 73.91400178400005, 15.344283626000081 ], [ 73.914038415000064, 15.34403123100007 ], [ 73.914239443999989, 15.343700054000024 ], [ 73.914385875000036, 15.343562304000084 ], [ 73.914464173000027, 15.343328628000023 ], [ 73.914482045000085, 15.342804911000034 ], [ 73.914685510000041, 15.34260477 ], [ 73.914965366000018, 15.342568421000095 ], [ 73.915226043000089, 15.34256786900005 ], [ 73.915486851000082, 15.342278291000071 ], [ 73.915409354000076, 15.341888672000074 ], [ 73.915347670000116, 15.3416753610001 ], [ 73.915249690000095, 15.341402875000025 ], [ 73.915167595000057, 15.34130227300005 ], [ 73.915027909000045, 15.341304608000065 ], [ 73.914886334000045, 15.341419927000103 ], [ 73.914644265000092, 15.341420728000081 ], [ 73.914564613999985, 15.341166495 ], [ 73.914525089000094, 15.340736791000069 ], [ 73.914443320000075, 15.340329041000082 ], [ 73.914282882000037, 15.340172971000047 ], [ 73.914038482000066, 15.340033707999982 ], [ 73.913940217000103, 15.33977928700007 ], [ 73.913943225000082, 15.339309570000108 ], [ 73.914238193000074, 15.338921107000029 ], [ 73.91430120800004, 15.338763959000083 ], [ 73.914220910000054, 15.338550459 ], [ 73.913916590000014, 15.338374164000072 ], [ 73.913517809000055, 15.338277668000082 ], [ 73.91329267400009, 15.338098042000052 ], [ 73.913319774000016, 15.337863568000014 ], [ 73.913538147000054, 15.337315864000082 ], [ 73.913595056000062, 15.336969003000071 ], [ 73.91371867900007, 15.336519163000066 ], [ 73.913943266000089, 15.336165781000048 ], [ 73.914182923000027, 15.336029438000047 ], [ 73.91434215300005, 15.335968588000075 ], [ 73.914684383000036, 15.335815804000045 ], [ 73.914846436000033, 15.335583351 ], [ 73.914766214000053, 15.335365337000077 ], [ 73.914600284000102, 15.335267905 ], [ 73.914581817000084, 15.335265200000052 ], [ 73.913940836000066, 15.335171930000062 ], [ 73.913818196000051, 15.334700241000025 ], [ 73.911521340000078, 15.333684365000082 ], [ 73.908554089000049, 15.332391538000049 ], [ 73.907309823000048, 15.332191541000022 ], [ 73.90668586800011, 15.331919914000018 ], [ 73.90672315900008, 15.330492947999989 ], [ 73.906880751000074, 15.328539314000082 ], [ 73.907046512000107, 15.326942641000045 ], [ 73.907365184000099, 15.325669148000014 ], [ 73.907686921000064, 15.324495072000037 ], [ 73.905778190000063, 15.324519691000031 ], [ 73.9051474460001, 15.324663512000029 ], [ 73.90456563700009, 15.32466352700003 ], [ 73.90390230300001, 15.324522198000061 ], [ 73.90211075800002, 15.324209776000057 ], [ 73.901368919, 15.324035638000037 ], [ 73.900240042000036, 15.32390065800006 ], [ 73.899051058000069, 15.323746607000015 ], [ 73.897943189000074, 15.323747437000083 ], [ 73.896590025000108, 15.323817929000054 ], [ 73.895583743000074, 15.32571193500009 ], [ 73.895291961000083, 15.326475406000021 ], [ 73.894959528000115, 15.327445951000033 ], [ 73.894884764000054, 15.328027593000019 ], [ 73.894932603000015, 15.328516232000037 ], [ 73.894933909000031, 15.329004077000079 ], [ 73.89475888900003, 15.329742300000053 ], [ 73.89448964100005, 15.330835848000028 ], [ 73.894169563000034, 15.331336822 ], [ 73.894064271000019, 15.331511301000049 ], [ 73.893933972000085, 15.331793900999983 ], [ 73.893871501000064, 15.33191039800003 ], [ 73.893842421000059, 15.331982230000023 ], [ 73.893746433000018, 15.33215694000009 ], [ 73.893630819000037, 15.332394502000028 ], [ 73.893494851000071, 15.332740253000036 ], [ 73.893403805000091, 15.332896970000036 ], [ 73.89322639100007, 15.333214903000052 ], [ 73.893049263000066, 15.33351486300009 ], [ 73.892833511000063, 15.33389545400005 ], [ 73.892785890000127, 15.333962489 ], [ 73.892611148000057, 15.334397992000063 ], [ 73.892342466000031, 15.334886190000045 ], [ 73.892298896000057, 15.334984905000042 ], [ 73.892150195000013, 15.335253584000068 ], [ 73.892140309000084, 15.335289571000025 ], [ 73.892092178000013, 15.335388216000105 ], [ 73.891883917000015, 15.33588193300001 ], [ 73.89184951, 15.335989820000055 ], [ 73.891815485000038, 15.336079646000027 ], [ 73.891525916000049, 15.336703036000092 ], [ 73.891409426000095, 15.33699487700008 ], [ 73.891245745000049, 15.337326658000087 ], [ 73.891104473, 15.337703813000118 ], [ 73.89101245800002, 15.33792375800002 ], [ 73.890882897000054, 15.338161193000037 ], [ 73.890873013000032, 15.338197182000084 ], [ 73.890844063000031, 15.338260016000042 ], [ 73.890757125000036, 15.338448422000088 ], [ 73.890722562000107, 15.338565309000078 ], [ 73.89069326, 15.338650757000043 ], [ 73.890490535000097, 15.339090224000078 ], [ 73.890358890000044, 15.339454124999989 ], [ 73.890328917000048, 15.339575586 ], [ 73.890265724000059, 15.339741816000078 ], [ 73.890230900000105, 15.339881321000075 ], [ 73.890206557000042, 15.339944166000034 ], [ 73.890085716000087, 15.340217827000028 ], [ 73.889959028000078, 15.340559127000024 ], [ 73.889843352000099, 15.340801344000081 ], [ 73.889692869000086, 15.341178504000023 ], [ 73.889557918000023, 15.341456406000102 ], [ 73.889435344, 15.341833921000074 ], [ 73.889354033000117, 15.341963713000066 ], [ 73.889214227000096, 15.342259751000046 ], [ 73.889136587000067, 15.342448277000102 ], [ 73.888933731000066, 15.342896775000085 ], [ 73.888856184000048, 15.343085304000052 ], [ 73.88865815200009, 15.343520502000089 ], [ 73.888449430000051, 15.344041202 ], [ 73.887996141000031, 15.345000889000097 ], [ 73.887924141000028, 15.345126329 ], [ 73.887832470000077, 15.345323662000069 ], [ 73.887578403000106, 15.345766903000062 ], [ 73.887558621000068, 15.345843354000081 ], [ 73.887442831000087, 15.346090038000064 ], [ 73.887360581000024, 15.34627855300003 ], [ 73.887149342000043, 15.346668212000029 ], [ 73.887023572000032, 15.346950884000059 ], [ 73.886956594000083, 15.347062848000085 ], [ 73.886884004000123, 15.347228776000048 ], [ 73.886812194000044, 15.347354132000117 ], [ 73.886647584000102, 15.347735629000063 ], [ 73.886559919000035, 15.347973644000039 ], [ 73.886467780000046, 15.348198150000051 ], [ 73.886376474000045, 15.348368308 ], [ 73.886366711000036, 15.348395270000019 ], [ 73.886155219000031, 15.348803077000099 ], [ 73.885963269000058, 15.349152399000047 ], [ 73.885559254000015, 15.349941166000029 ], [ 73.885317757000024, 15.350475090000064 ], [ 73.885303512000092, 15.350492921000029 ], [ 73.885105233000019, 15.350941525000021 ], [ 73.885032054000092, 15.351143654000047 ], [ 73.8848774410001, 15.351480133000088 ], [ 73.88477104, 15.351726940000081 ], [ 73.88470243400009, 15.351938204000064 ], [ 73.884395230000081, 15.352778137000016 ], [ 73.884265166000063, 15.353047217000075 ], [ 73.884188206, 15.353195077000052 ], [ 73.884154537000057, 15.353262367000113 ], [ 73.883771563000082, 15.353897818000021 ], [ 73.883714563000069, 15.353973706 ], [ 73.883556969000082, 15.354210692000063 ], [ 73.883404647000091, 15.35441605600009 ], [ 73.883390047000034, 15.354456501000062 ], [ 73.883318376000062, 15.354563889000065 ], [ 73.883140539000095, 15.354904317000077 ], [ 73.882972809000066, 15.355195443000095 ], [ 73.882668183000092, 15.355597229000033 ], [ 73.882639459000103, 15.355646477000022 ], [ 73.882625319000098, 15.355659842000062 ], [ 73.882486779, 15.355874455000055 ], [ 73.882323164000056, 15.356201704000043 ], [ 73.882280112000046, 15.356264310000071 ], [ 73.882136747000075, 15.3564879360001 ], [ 73.882036815000077, 15.356617400000065 ], [ 73.881936975000073, 15.35674686800003 ], [ 73.881688230000094, 15.357158583000079 ], [ 73.881611986000095, 15.357256744000029 ], [ 73.881382549000122, 15.357623650000011 ], [ 73.881209413000093, 15.357959714000017 ], [ 73.881156092000126, 15.358089867000039 ], [ 73.880829600000112, 15.35868563500004 ], [ 73.880824536000048, 15.358712613000051 ], [ 73.880709184000096, 15.358932219000014 ], [ 73.880482503000081, 15.359407553 ], [ 73.880425393000053, 15.359487905999984 ], [ 73.880257655000037, 15.359778939 ], [ 73.880165958000092, 15.359976366000076 ], [ 73.879991662000052, 15.360380180000092 ], [ 73.879740608000063, 15.360922923000057 ], [ 73.879706140000053, 15.361035256000026 ], [ 73.879691550000089, 15.361071231000071 ], [ 73.879179826000026, 15.361898899000074 ], [ 73.879047041000049, 15.362041486000059 ], [ 73.878966841000079, 15.362112380000063 ], [ 73.878259262000071, 15.362666069000046 ], [ 73.877886853000078, 15.362944911000024 ], [ 73.877592979, 15.363265571000088 ], [ 73.877378712000038, 15.363555829000035 ], [ 73.87731044300007, 15.363744480000012 ], [ 73.877281850000017, 15.363780229000039 ], [ 73.877234299000079, 15.363838174000037 ], [ 73.877000836000036, 15.36416430300002 ], [ 73.876900186000057, 15.364338905000078 ], [ 73.8763800790001, 15.365103255000083 ], [ 73.875399093000027, 15.366149553000056 ], [ 73.874255716, 15.367157055000106 ], [ 73.874046019000076, 15.367452066000091 ], [ 73.873689631000076, 15.367889075000011 ], [ 73.873381570000078, 15.368083117 ], [ 73.873073323000057, 15.36827705900005 ], [ 73.872625761000066, 15.368595333 ], [ 73.872391534000045, 15.368686458000084 ], [ 73.871269833000056, 15.369224464000101 ], [ 73.871214494000085, 15.369187542000066 ], [ 73.87097540500011, 15.369007537000094 ], [ 73.870947709000049, 15.368998063000021 ], [ 73.870863628, 15.369014861000078 ], [ 73.870420649000039, 15.369337703000056 ], [ 73.870345761000067, 15.369359178000057 ], [ 73.87016852800005, 15.369378976000096 ], [ 73.870066182000116, 15.369377300000046 ], [ 73.869987276000074, 15.36936256000007 ], [ 73.869802282000038, 15.369282840000047 ], [ 73.869434108000036, 15.369028486000051 ], [ 73.869365033000093, 15.368982269000046 ], [ 73.869107058000068, 15.368815561000108 ], [ 73.86856342400003, 15.368468199000056 ], [ 73.86840104, 15.368429583000058 ], [ 73.867839623000094, 15.368321364000074 ], [ 73.867223303000088, 15.368420060000069 ], [ 73.866171207000079, 15.368417024000085 ], [ 73.865515615, 15.368366045000041 ], [ 73.865108847000016, 15.368188067000059 ], [ 73.86489766400004, 15.368138716000061 ], [ 73.864278628000065, 15.367994193000094 ], [ 73.863854331000041, 15.368032738000085 ], [ 73.863655416000014, 15.367957350000065 ], [ 73.86340303, 15.367736528 ], [ 73.863352722000016, 15.367401337000068 ], [ 73.863307350000085, 15.367048379 ], [ 73.863754951, 15.366725482000014 ], [ 73.863863619000014, 15.366632439000043 ], [ 73.863792769000014, 15.365854183000042 ], [ 73.86371516400007, 15.365758192 ], [ 73.863638015000092, 15.365639499000043 ], [ 73.863574435000061, 15.365539081000083 ], [ 73.863475371000035, 15.365338796000032 ], [ 73.863421887000058, 15.365197835000092 ], [ 73.863417760000075, 15.365166180000049 ], [ 73.863419293000021, 15.365071345000018 ], [ 73.863278547, 15.36485679600003 ], [ 73.862977789000084, 15.36474361200008 ], [ 73.861518984999989, 15.364557997000087 ], [ 73.861224709000069, 15.364616633000054 ], [ 73.861079642000064, 15.364659498000048 ], [ 73.860878748000047, 15.364701552000064 ], [ 73.860538310000038, 15.364736790000048 ], [ 73.860431262000063, 15.364735181000093 ], [ 73.860342705, 15.364742750000097 ], [ 73.859919240000053, 15.364731586000062 ], [ 73.859597984000033, 15.364735513000031 ], [ 73.859542173000122, 15.364730141000031 ], [ 73.859458557000039, 15.364719850000068 ], [ 73.858975530000052, 15.364644479000049 ], [ 73.85872953300003, 15.364599850000086 ], [ 73.857483052000106, 15.364526019000017 ], [ 73.857151916000063, 15.364561460000019 ], [ 73.857040281000067, 15.364555183000032 ], [ 73.856709844000079, 15.364549955000044 ], [ 73.856281328000065, 15.364561197000086 ], [ 73.856090561, 15.364553669 ], [ 73.855802872000083, 15.36449504300003 ], [ 73.855473153000077, 15.364444583000029 ], [ 73.855315449000074, 15.364415002000069 ], [ 73.855101358000042, 15.364411686000061 ], [ 73.854900838000063, 15.364426554000048 ], [ 73.854824408000042, 15.364404978000039 ], [ 73.854110887000061, 15.364061684000056 ], [ 73.854087690000014, 15.364056777 ], [ 73.853995039000068, 15.364023654000018 ], [ 73.853911890000035, 15.363986278000034 ], [ 73.853875284000111, 15.363944943000078 ], [ 73.853794377000085, 15.363912088000024 ], [ 73.85335312800008, 15.363430809 ], [ 73.853275386000035, 15.363352692000014 ], [ 73.853170611000067, 15.363206543000089 ], [ 73.85310229400001, 15.363119609 ], [ 73.853128788000078, 15.362925822000044 ], [ 73.85316448, 15.362736622000021 ], [ 73.85317800100006, 15.362488357000085 ], [ 73.853188269000029, 15.362425283000018 ], [ 73.85321333400006, 15.362321773000069 ], [ 73.853256912000106, 15.362218590000058 ], [ 73.853287757, 15.362114139000031 ], [ 73.853291513000045, 15.362101705000068 ], [ 73.852944518000101, 15.361938575000071 ], [ 73.852903411000085, 15.361919284000074 ], [ 73.852840757000052, 15.361489127 ], [ 73.852815322000069, 15.361479655000025 ], [ 73.852955097000091, 15.361332825000044 ], [ 73.85329671300012, 15.360945159000032 ], [ 73.853021272000063, 15.360154681 ], [ 73.852371140000088, 15.359498437000056 ], [ 73.851332088, 15.358989686000061 ], [ 73.850512994, 15.359252268000027 ], [ 73.849405393000026, 15.35923023900007 ], [ 73.848043946000089, 15.358793026000043 ], [ 73.847709632000047, 15.358742628000048 ], [ 73.847212835000065, 15.358662435000074 ], [ 73.846422237000112, 15.358613766000044 ], [ 73.845989380000091, 15.358606908000098 ], [ 73.845794049000091, 15.358590230000051 ], [ 73.845478235000073, 15.358544626 ], [ 73.845208567000057, 15.358526801000043 ], [ 73.844922649000111, 15.358644248000079 ], [ 73.844342227000041, 15.358833789000041 ], [ 73.843676231000103, 15.358570298000089 ], [ 73.843530247, 15.358387265000044 ], [ 73.842915814000065, 15.358382001000052 ], [ 73.842668999000068, 15.358387133000033 ], [ 73.842426432000067, 15.35841489200002 ], [ 73.842389896000071, 15.358653782000069 ], [ 73.842065243000036, 15.358856449000051 ], [ 73.841546637000107, 15.358970129000042 ], [ 73.841189455000048, 15.359447898000049 ], [ 73.841114101000116, 15.359496438000068 ], [ 73.841085833000079, 15.359518507000118 ], [ 73.840944883000063, 15.359593098000072 ], [ 73.840700872000028, 15.359711221000076 ], [ 73.840644724000086, 15.359723802000051 ], [ 73.840059100000047, 15.35994504400006 ], [ 73.839951466000016, 15.359979439000064 ], [ 73.839627967000069, 15.36011882300005 ], [ 73.839356311000074, 15.36021387000001 ], [ 73.839163641000113, 15.360323767000043 ], [ 73.839092969000035, 15.360376886 ], [ 73.838970533000037, 15.36045171300006 ], [ 73.838533740000045, 15.360684196000022 ], [ 73.838496288000059, 15.360697206000033 ], [ 73.838173268000062, 15.360805035000073 ], [ 73.83795719500003, 15.360914575999988 ], [ 73.837759561000027, 15.3610468900001 ], [ 73.837546871000015, 15.361237787000086 ], [ 73.837447017000017, 15.361358194000012 ], [ 73.837370333000067, 15.361492450000107 ], [ 73.837294269000068, 15.361581657000027 ], [ 73.83708801800006, 15.361948755000114 ], [ 73.837010278000022, 15.362141824000012 ], [ 73.836979575000058, 15.362303942000015 ], [ 73.836141706, 15.364242321000081 ], [ 73.835952113000047, 15.364442579000041 ], [ 73.835838040000027, 15.364585367000043 ], [ 73.835694400000037, 15.364822470000032 ], [ 73.835510619000019, 15.365230691000058 ], [ 73.835949663000108, 15.365422837000057 ], [ 73.83584714800007, 15.365985984000112 ], [ 73.835274634000029, 15.366256950000061 ], [ 73.834873106000032, 15.366878547000066 ], [ 73.834746895000066, 15.367188191000018 ], [ 73.834020069000061, 15.367772971 ], [ 73.833102424000074, 15.36835923400001 ], [ 73.832534431000056, 15.368910414000052 ], [ 73.832295277000085, 15.369015044 ], [ 73.832093264000065, 15.369120248000094 ], [ 73.831937002000103, 15.369280362000019 ], [ 73.831841598000025, 15.369414404000096 ], [ 73.831821425000044, 15.369508952000015 ], [ 73.831807463000047, 15.369508736000085 ], [ 73.831765645000047, 15.369503574000102 ], [ 73.831672851000093, 15.36948398300008 ], [ 73.831649949000067, 15.369461045000048 ], [ 73.831507974000047, 15.369323250000015 ], [ 73.831494306000067, 15.369304970000012 ], [ 73.831448945000048, 15.369231998000014 ], [ 73.83142183400011, 15.369181801000035 ], [ 73.830922692000016, 15.369241674000016 ], [ 73.830519195000122, 15.368318114000072 ], [ 73.830451228000086, 15.368204137000056 ], [ 73.830391684000048, 15.368144406000088 ], [ 73.830294680000108, 15.368097739000046 ], [ 73.830183660000074, 15.368059797000015 ], [ 73.829975023000031, 15.368006797000071 ], [ 73.829863466000049, 15.367995950000061 ], [ 73.829714521000071, 15.367993652000049 ], [ 73.829452890000084, 15.36804363600001 ], [ 73.829224451000101, 15.36806260400007 ], [ 73.828891943000045, 15.367903706000067 ], [ 73.828845176000073, 15.367916535000063 ], [ 73.828569377000079, 15.36798436700008 ], [ 73.82855053800003, 15.367997629000023 ], [ 73.828307226000064, 15.368066053000089 ], [ 73.828021598000063, 15.368165444000052 ], [ 73.827862606000053, 15.368208067000026 ], [ 73.82784849500004, 15.368216883000045 ], [ 73.827436881000082, 15.368327788000073 ], [ 73.827028883000082, 15.368501987000098 ], [ 73.826519025000081, 15.368647416000051 ], [ 73.826229241000078, 15.368710604000039 ], [ 73.825920341000014, 15.368809541000054 ], [ 73.825718918000049, 15.36887861 ], [ 73.825466314000025, 15.368951403000068 ], [ 73.825129930000074, 15.369022902000033 ], [ 73.824919273000049, 15.369087221000026 ], [ 73.82472252200003, 15.369160969000088 ], [ 73.824381187000029, 15.369250367000024 ], [ 73.82398803800001, 15.369370582000023 ], [ 73.823829118000091, 15.369408687999979 ], [ 73.82371681500004, 15.369443087000072 ], [ 73.823576809, 15.369463416000066 ], [ 73.823310445000075, 15.369517837000039 ], [ 73.823228540000045, 15.369545918000053 ], [ 73.823146572000013, 15.369574023000069 ], [ 73.823048377000063, 15.369617453000021 ], [ 73.822949617000063, 15.369661248000092 ], [ 73.82278497800003, 15.369757994000015 ], [ 73.822648348, 15.369855110000056 ], [ 73.822549275000071, 15.369934936000089 ], [ 73.822434657, 15.370104804000022 ], [ 73.822357732000029, 15.370248081000064 ], [ 73.82229082, 15.370350903000045 ], [ 73.821803880000033, 15.370790358 ], [ 73.821711147, 15.37104191700011 ], [ 73.821869212000109, 15.371338099000102 ], [ 73.821792427000062, 15.371467876000093 ], [ 73.821736828000084, 15.371731236000034 ], [ 73.821664997000084, 15.371854380000098 ], [ 73.821187672000036, 15.371995849 ], [ 73.821136328000051, 15.372003975000041 ], [ 73.820851684000033, 15.372040128000013 ], [ 73.820553482000051, 15.372057910000063 ], [ 73.820423007000088, 15.372060475000097 ], [ 73.820325155000077, 15.372063335000067 ], [ 73.820218102000098, 15.372061697000021 ], [ 73.819511634, 15.371991643000086 ], [ 73.81907449200007, 15.371962076000038 ], [ 73.818213993000015, 15.371912194000085 ], [ 73.818013916000069, 15.371904401000062 ], [ 73.817651322000088, 15.371871526000096 ], [ 73.8174507680001, 15.371890906000012 ], [ 73.817357376000103, 15.371907459000049 ], [ 73.817040121000048, 15.371943037000062 ], [ 73.816913983000092, 15.371968233000104 ], [ 73.816670663000124, 15.372040997000084 ], [ 73.81653025100006, 15.372088580000025 ], [ 73.816272084, 15.37221090000002 ], [ 73.816196811000083, 15.372259342000032 ], [ 73.816064298000043, 15.372383821000028 ], [ 73.815988077000043, 15.37248642700008 ], [ 73.815466488000055, 15.373322890000011 ], [ 73.81552212800004, 15.373608420000011 ], [ 73.814825751000072, 15.374044498000032 ], [ 73.8141982490001, 15.374535981000108 ], [ 73.813502117000056, 15.374953997000055 ], [ 73.812943119000082, 15.375243166000089 ], [ 73.812475642000038, 15.375357743000066 ], [ 73.812368594000063, 15.375355917 ], [ 73.81181140200006, 15.375816900000043 ], [ 73.811239021000034, 15.375523111000071 ], [ 73.810605491000018, 15.375269056000011 ], [ 73.809963435000014, 15.375240577000053 ], [ 73.809754044, 15.375232741000026 ], [ 73.809618952000022, 15.375239572000059 ], [ 73.809520742000061, 15.375260660000027 ], [ 73.809197318000045, 15.375386482000046 ], [ 73.808989869000101, 15.375541250000062 ], [ 73.808919431000049, 15.375576298000031 ], [ 73.808881628000037, 15.375607264000017 ], [ 73.808771318000055, 15.375799848000053 ], [ 73.808609427000064, 15.376014050000013 ], [ 73.808599664000056, 15.376036447000089 ], [ 73.80850913700003, 15.376166089000069 ], [ 73.807993376000084, 15.376654741 ], [ 73.807813015000079, 15.376855105000057 ], [ 73.807788957000042, 15.376904451000055 ], [ 73.80777279400003, 15.377030696000109 ], [ 73.80777064000003, 15.377157082000085 ], [ 73.807786839000045, 15.377301864000074 ], [ 73.807821784000097, 15.377433574000047 ], [ 73.80806806800004, 15.378015789000081 ], [ 73.808126665, 15.37813409100001 ], [ 73.808267333000103, 15.3783487910001 ], [ 73.808381300000022, 15.378490626000023 ], [ 73.808450056000112, 15.378554973000107 ], [ 73.808537788000095, 15.378597042000035 ], [ 73.808625979000013, 15.378616500000046 ], [ 73.808639763, 15.378625757000101 ], [ 73.808968788000044, 15.378716904 ], [ 73.809252151000052, 15.378752991000059 ], [ 73.809377448000106, 15.378777681000059 ], [ 73.809465400000107, 15.37881072600004 ], [ 73.809479169, 15.378824454000021 ], [ 73.809659221000061, 15.378913167000078 ], [ 73.809686770000042, 15.378936244000034 ], [ 73.809709018, 15.378995322000037 ], [ 73.80973426900006, 15.379158375000028 ], [ 73.809733446000081, 15.379203511000032 ], [ 73.809713630000033, 15.379275487000037 ], [ 73.809693339000049, 15.379374545000061 ], [ 73.809574693000087, 15.379508191000106 ], [ 73.809431294000035, 15.379727291000027 ], [ 73.80942949000007, 15.37983562500002 ], [ 73.809442417000071, 15.379899050000027 ], [ 73.80951082200005, 15.379981542000014 ], [ 73.809629381, 15.380127953000049 ], [ 73.809683039000078, 15.380259823000035 ], [ 73.809694172000022, 15.380427203000028 ], [ 73.809694556000053, 15.380680268 ], [ 73.809741711000058, 15.380920364000065 ], [ 73.809767821000079, 15.381029158 ], [ 73.809844932000061, 15.381147885000061 ], [ 73.810047567000041, 15.381282185000071 ], [ 73.810203824000013, 15.381402096000045 ], [ 73.810425082000023, 15.381532263000068 ], [ 73.810566823000016, 15.381688148 ], [ 73.810565638000099, 15.381755809 ], [ 73.810430427000014, 15.381767199000056 ], [ 73.81029604200009, 15.381733361 ], [ 73.81015839800007, 15.381613696000056 ], [ 73.810007352000099, 15.381457687000026 ], [ 73.809764091000034, 15.38125056600003 ], [ 73.809585861000031, 15.381048865000039 ], [ 73.809551287000019, 15.380890249000061 ], [ 73.809576642000067, 15.380768684000039 ], [ 73.80958494000005, 15.380556506000069 ], [ 73.809587954000037, 15.380375859000043 ], [ 73.809529235000056, 15.380266404000047 ], [ 73.809401356000052, 15.380124340000105 ], [ 73.809260238, 15.379927781 ], [ 73.809197749000077, 15.379768706000078 ], [ 73.809209326000058, 15.379637792000082 ], [ 73.809276850000046, 15.379498955000052 ], [ 73.809380875000045, 15.37940565800006 ], [ 73.809411074000053, 15.379270611999988 ], [ 73.809366004000054, 15.37917962600001 ], [ 73.809264968000036, 15.379101126 ], [ 73.809159248000086, 15.379018046000052 ], [ 73.808829870000096, 15.378945045000052 ], [ 73.808671698000069, 15.378938023 ], [ 73.808385946000058, 15.379041817000065 ], [ 73.807928727000061, 15.379097779000077 ], [ 73.807943878000074, 15.379576964000023 ], [ 73.807949567, 15.379793845000027 ], [ 73.807969896, 15.379965815000045 ], [ 73.80801417100011, 15.380373148000086 ], [ 73.808110281000069, 15.38130531100003 ], [ 73.808158562000074, 15.382028925000039 ], [ 73.808197279000069, 15.382490412000031 ], [ 73.808216239000046, 15.38357040600004 ], [ 73.808199568000092, 15.383732769000062 ], [ 73.808161667000064, 15.384043884000047 ], [ 73.807752093, 15.384583983000059 ], [ 73.807698234000085, 15.385016792000076 ], [ 73.80755582700003, 15.385448288000074 ], [ 73.807439372000076, 15.386006551000079 ], [ 73.807417773000054, 15.386458077000047 ], [ 73.807439075000048, 15.386851388 ], [ 73.807372430000044, 15.387487338000032 ], [ 73.807216256000089, 15.388185084000032 ], [ 73.807161792000016, 15.388654008000017 ], [ 73.806954808000029, 15.389057383 ], [ 73.806532863000029, 15.390600145000104 ], [ 73.806360452000064, 15.390881982000064 ], [ 73.806095360000072, 15.391415384000055 ], [ 73.80596270800001, 15.391824396000057 ], [ 73.805095285, 15.392723039000071 ], [ 73.804304903000073, 15.393478316000035 ], [ 73.803965465000047, 15.393725918 ], [ 73.803527767000077, 15.393727857000076 ], [ 73.803265515000049, 15.393542997000058 ], [ 73.803058170000028, 15.393408573000038 ], [ 73.802808861000102, 15.393282670000101 ], [ 73.802790468000083, 15.393273398000044 ], [ 73.802709153000109, 15.393122909000027 ], [ 73.802505660000065, 15.39303838500005 ], [ 73.802329819000079, 15.392976761000014 ], [ 73.802204031000059, 15.392979238000041 ], [ 73.80206456600007, 15.392967990000088 ], [ 73.801949784000072, 15.392866811000065 ], [ 73.801733690000049, 15.392709654000029 ], [ 73.801599567000054, 15.392653278000072 ], [ 73.80150650200008, 15.392651859000043 ], [ 73.801454301000021, 15.392709769000039 ], [ 73.801438371000032, 15.392822430000034 ], [ 73.801380720000068, 15.392929933000048 ], [ 73.801328777000023, 15.392969694000051 ], [ 73.801272937000121, 15.392968860000071 ], [ 73.801116076000099, 15.392884957000057 ], [ 73.801018328000097, 15.392878957000093 ], [ 73.800897001000095, 15.392895039000091 ], [ 73.800757174000069, 15.392906313000047 ], [ 73.800663781000068, 15.392918386000069 ], [ 73.800589572000064, 15.392903626000091 ], [ 73.800534483000035, 15.392853089 ], [ 73.800514162000042, 15.392681114000066 ], [ 73.800493623000122, 15.392518071000076 ], [ 73.800430167000016, 15.392417714000032 ], [ 73.800346910000059, 15.392384683000053 ], [ 73.800244194000086, 15.392401102000079 ], [ 73.800136064000114, 15.392458081 ], [ 73.800018223000038, 15.392546587000037 ], [ 73.799900897000015, 15.392598885000012 ], [ 73.799852695000112, 15.392693011000073 ], [ 73.799796016000045, 15.392741786000023 ], [ 73.799665274000063, 15.392762209000026 ], [ 73.799594696999989, 15.392806284000031 ], [ 73.799531973000043, 15.392936384000048 ], [ 73.799480162000108, 15.392967023 ], [ 73.799340457000099, 15.392969359000023 ], [ 73.799270121000049, 15.392999846000059 ], [ 73.799204261000014, 15.393039468000051 ], [ 73.799120377000094, 15.39304719899998 ], [ 73.799046315000098, 15.393018848000033 ], [ 73.798920635000087, 15.393016855000045 ], [ 73.798781923000064, 15.392955900000064 ], [ 73.79867919100009, 15.392976790000017 ], [ 73.79849708700003, 15.393005512000084 ], [ 73.798370452000043, 15.393057685000048 ], [ 73.798308342000055, 15.393151491 ], [ 73.798245877000028, 15.39326344100002 ], [ 73.798142773000023, 15.393307038000074 ], [ 73.798012394000082, 15.393304934000078 ], [ 73.797873318000029, 15.393266503000095 ], [ 73.797698703000052, 15.393128178000019 ], [ 73.797559258000064, 15.393112363000043 ], [ 73.797340760000012, 15.39309526900005 ], [ 73.797200725000067, 15.393111094000027 ], [ 73.79708820500008, 15.393159033000085 ], [ 73.797013775000053, 15.393153297000055 ], [ 73.796889436000072, 15.393069958000087 ], [ 73.796698870000014, 15.393048854000028 ], [ 73.796572698000062, 15.393078413000076 ], [ 73.796487732000045, 15.393149339000082 ], [ 73.796453660000068, 15.393234670000037 ], [ 73.796471316000108, 15.393289175000106 ], [ 73.796567739000096, 15.393371961000028 ], [ 73.79653040200003, 15.393375932 ], [ 73.796358066000067, 15.393382163000073 ], [ 73.79619989800004, 15.393370566 ], [ 73.795841359000036, 15.393369386000082 ], [ 73.795799677000048, 15.393355101000054 ], [ 73.795699476000024, 15.39322707200003 ], [ 73.79546349100012, 15.392861809000095 ], [ 73.795350504000098, 15.392661139000012 ], [ 73.795254913000093, 15.392533125000078 ], [ 73.795112426000031, 15.392426923000084 ], [ 73.795038233000113, 15.39240769 ], [ 73.794930818000097, 15.392423996000019 ], [ 73.794748457000111, 15.392470771999982 ], [ 73.794584376000032, 15.392531379000022 ], [ 73.794490470000085, 15.392579563000012 ], [ 73.794443574000113, 15.392601377000041 ], [ 73.79421978200007, 15.392615900000088 ], [ 73.793889152000062, 15.392619559000035 ], [ 73.793608920000068, 15.392669266000063 ], [ 73.793459214000023, 15.392707490000117 ], [ 73.793332819000042, 15.392746071000023 ], [ 73.792820192000079, 15.392773975000111 ], [ 73.792722430000083, 15.392772440000073 ], [ 73.792390843000092, 15.392830262000061 ], [ 73.792232287000019, 15.392845839000106 ], [ 73.792091774000127, 15.392888743000103 ], [ 73.791909411000049, 15.392935516000065 ], [ 73.791824333000108, 15.393010905 ], [ 73.791809701000048, 15.393051346000057 ], [ 73.79170372600008, 15.393257437000056 ], [ 73.791574305000026, 15.393472289000069 ], [ 73.790589903000111, 15.393858453000046 ], [ 73.78978706700012, 15.395340911000048 ], [ 73.790042469000113, 15.396750015000109 ], [ 73.790919313000103, 15.397211517000102 ], [ 73.791095866000049, 15.397507904000022 ], [ 73.791301641000118, 15.397732626000053 ], [ 73.791461253000094, 15.397934018000019 ], [ 73.79175696300004, 15.398340906000023 ], [ 73.791956464000023, 15.398660268000068 ], [ 73.791996727000068, 15.398751333000053 ], [ 73.792009885000098, 15.398801268000099 ], [ 73.791999124, 15.398886956000084 ], [ 73.791979778, 15.39893175800006 ], [ 73.791946678000016, 15.398958359000041 ], [ 73.791904625, 15.398966690000108 ], [ 73.791746191000044, 15.398973237000028 ], [ 73.791739908000054, 15.398796838000088 ], [ 73.791413397000042, 15.398281129000051 ], [ 73.791080578000035, 15.398682396000034 ], [ 73.790404083000013, 15.398757217 ], [ 73.789456734000055, 15.399153087000077 ], [ 73.789673254000036, 15.399838768000055 ], [ 73.789459095000069, 15.400110866 ], [ 73.789350322000047, 15.400208606000014 ], [ 73.788909813000018, 15.400644230000086 ], [ 73.788743513000014, 15.400840258000052 ], [ 73.788657575000101, 15.400965440000018 ], [ 73.788537068000082, 15.401207415000055 ], [ 73.788459588000066, 15.401382421000058 ], [ 73.788368974000022, 15.401502839000074 ], [ 73.788345402000033, 15.401520539000028 ], [ 73.788146700000112, 15.401707058000095 ], [ 73.788104162000053, 15.401742563000013 ], [ 73.787923946000063, 15.401938360000049 ], [ 73.78789521200008, 15.401978562000089 ], [ 73.787784136000042, 15.402211724000018 ], [ 73.78763121900009, 15.402715324000031 ], [ 73.787451120000114, 15.403173227 ], [ 73.787342804000033, 15.403519395000036 ], [ 73.78732743400009, 15.403604979000011 ], [ 73.786901256000093, 15.40456486900003 ], [ 73.78680711100003, 15.404893120000011 ], [ 73.786588456000061, 15.405156174000105 ], [ 73.786394979000121, 15.405302122000013 ], [ 73.786174102000061, 15.405971740000084 ], [ 73.785929723, 15.406103280000043 ], [ 73.78584983100005, 15.40614713400003 ], [ 73.785813468000057, 15.406092372000028 ], [ 73.785832579000044, 15.406061065000102 ], [ 73.785947749000073, 15.405864218000069 ], [ 73.785855788, 15.405794938000021 ], [ 73.785520299000055, 15.405807496 ], [ 73.78519249300011, 15.406190813 ], [ 73.784924061000098, 15.406367135000025 ], [ 73.784627481000072, 15.406552107000053 ], [ 73.784438827, 15.406689135000022 ], [ 73.784338012000021, 15.406868161 ], [ 73.784475031000071, 15.407028534000037 ], [ 73.784530758000059, 15.407034023000048 ], [ 73.784553965000029, 15.407038850000092 ], [ 73.784144083000044, 15.407592412000064 ], [ 73.783967604000097, 15.407838106000053 ], [ 73.783895704000017, 15.407954397 ], [ 73.783876611000025, 15.407981140000075 ], [ 73.78383962400008, 15.407966962000057 ], [ 73.783688399000084, 15.40810011600006 ], [ 73.78355916600006, 15.408576900000075 ], [ 73.783394421000096, 15.408949220000061 ], [ 73.7833364950001, 15.409341355 ], [ 73.783179702000012, 15.409528571000035 ], [ 73.783155269000119, 15.409866929000053 ], [ 73.783169260000122, 15.410138303000036 ], [ 73.783200392000126, 15.410500212000048 ], [ 73.783200009, 15.41079387800001 ], [ 73.783337768000123, 15.410909110000041 ], [ 73.783462855999986, 15.410947231 ], [ 73.783489911000103, 15.411001869000078 ], [ 73.783701009000069, 15.411457092 ], [ 73.783709834, 15.411484392000034 ], [ 73.783685429000016, 15.411547231000082 ], [ 73.783716594000026, 15.411633531000028 ], [ 73.783773014000076, 15.411873959000026 ], [ 73.783907411, 15.411912204 ], [ 73.783925658, 15.411935071000109 ], [ 73.784145955000028, 15.412394977000059 ], [ 73.784159487000082, 15.412422205 ], [ 73.78408452700009, 15.412452671000036 ], [ 73.784156322000086, 15.412607515000058 ], [ 73.784290110000043, 15.412681874000082 ], [ 73.784437903000111, 15.412756558000044 ], [ 73.784628030000121, 15.412800291000021 ], [ 73.784920634000088, 15.412845675000046 ], [ 73.785134908000046, 15.412844628000048 ], [ 73.785347744000077, 15.412924834000023 ], [ 73.785528152999987, 15.41300018400004 ], [ 73.785699891000078, 15.413034550000042 ], [ 73.785922052000075, 15.413110409000101 ], [ 73.78602441800011, 15.413116525000074 ], [ 73.786304211000072, 15.413094006000076 ], [ 73.786416366000111, 15.413073162000039 ], [ 73.786614691000096, 15.413184869000045 ], [ 73.786907908000018, 15.413194043 ], [ 73.787125593, 15.41298980600007 ], [ 73.787010902000105, 15.412888524000039 ], [ 73.786781928000082, 15.412934530000026 ], [ 73.78679203800003, 15.412884996000102 ], [ 73.78680289700003, 15.412799310000029 ], [ 73.786998945000093, 15.412770830000071 ], [ 73.787518151000057, 15.412639276000021 ], [ 73.787761458000034, 15.412570837000043 ], [ 73.788095034, 15.412400033000033 ], [ 73.788409182000066, 15.412269556000073 ], [ 73.788803043000058, 15.412117848000044 ], [ 73.789196350000097, 15.411988658000013 ], [ 73.789289426000067, 15.411990084000042 ], [ 73.789400964000066, 15.412005534000077 ], [ 73.789600607000054, 15.412044832000042 ], [ 73.789692589000126, 15.412109639000075 ], [ 73.78995821500007, 15.4123759 ], [ 73.790003535, 15.412448932000082 ], [ 73.790049319000062, 15.412499351000079 ], [ 73.790090087000053, 15.412558682000014 ], [ 73.790217426000112, 15.41274601600006 ], [ 73.790257934000095, 15.412823496000076 ], [ 73.790344082000018, 15.412964897000052 ], [ 73.79035774000009, 15.412983186000055 ], [ 73.790402711000084, 15.413345323000087 ], [ 73.791771566000094, 15.417469737000015 ], [ 73.791672178000042, 15.418114188000047 ], [ 73.791815513000088, 15.418992982000105 ], [ 73.79183854700004, 15.419040968000079 ], [ 73.791900971000061, 15.419170584000057 ], [ 73.790416115000127, 15.423725685 ], [ 73.789801164000039, 15.425612096000034 ], [ 73.785999326000066, 15.437273512000075 ], [ 73.786021423000122, 15.43749374400009 ], [ 73.786112928000051, 15.43840570100005 ], [ 73.786948614000011, 15.446734217000017 ], [ 73.787176507000126, 15.449005281999987 ], [ 73.7882012970001, 15.459216998000073 ], [ 73.788184619000049, 15.459379367000096 ], [ 73.78820217500008, 15.459438368000093 ], [ 73.787931173000047, 15.459488244000045 ], [ 73.787776143, 15.459567041000081 ], [ 73.787698982, 15.459719427000078 ], [ 73.787709701000011, 15.45990932900007 ], [ 73.787772040000021, 15.460082059000062 ], [ 73.787958165000049, 15.460094099000081 ], [ 73.788109142000025, 15.459979009000062 ], [ 73.78830045100004, 15.459959507000047 ], [ 73.788400422000052, 15.460110240000084 ], [ 73.788632816000103, 15.460141073000059 ], [ 73.788414821000089, 15.460358926000055 ], [ 73.788295973000032, 15.46049710800003 ], [ 73.788215226, 15.460590710000048 ], [ 73.788072418000098, 15.460769082000063 ], [ 73.787976554000068, 15.460925693000053 ], [ 73.787875206000123, 15.461131911000063 ], [ 73.787807526000023, 15.461279927000053 ], [ 73.787758006000018, 15.461450815999982 ], [ 73.787759637000065, 15.461627023000084 ], [ 73.787794162000068, 15.462065760000058 ], [ 73.787805935000065, 15.462192434000059 ], [ 73.787857740000092, 15.462432672000041 ], [ 73.7879060920001, 15.462600576000078 ], [ 73.787973389000072, 15.462755315 ], [ 73.788105718000097, 15.462915499000111 ], [ 73.788249557, 15.462949463 ], [ 73.788626121000078, 15.462720541000056 ], [ 73.788700179000074, 15.462748895000093 ], [ 73.788820811000022, 15.462777889000094 ], [ 73.788867080000031, 15.46279668300005 ], [ 73.789534566000015, 15.463263667000053 ], [ 73.789608779000019, 15.463282898000045 ], [ 73.789715813000086, 15.463289182000032 ], [ 73.789622410000092, 15.463572231000093 ], [ 73.789711716000014, 15.463804111000094 ], [ 73.785598330000113, 15.469745105000047 ], [ 73.781526479, 15.475625571000055 ], [ 73.778527507000021, 15.48252565900005 ], [ 73.775931047000043, 15.488499120000025 ], [ 73.775688585000054, 15.489056841000075 ], [ 73.775527416000045, 15.489116470000035 ], [ 73.775166513000016, 15.48919597400004 ], [ 73.774768244000015, 15.489197113000046 ], [ 73.774450757000039, 15.489162001000071 ], [ 73.774231140999987, 15.490311936000094 ], [ 73.773722735000021, 15.490438597 ], [ 73.773019429, 15.490430740000065 ], [ 73.772863105000042, 15.490335993000041 ], [ 73.772359138000084, 15.490321134000055 ], [ 73.771067045000024, 15.490463309000095 ], [ 73.769760477, 15.490643679000097 ], [ 73.769595794000068, 15.48996922000007 ], [ 73.769508897000065, 15.490623381000017 ], [ 73.769358917, 15.491172666000079 ], [ 73.769089918000034, 15.492130502000105 ], [ 73.768879274000014, 15.492497720000113 ], [ 73.768605433000104, 15.49284619600008 ], [ 73.768362670000087, 15.492967803000017 ], [ 73.768013808, 15.49308627900005 ], [ 73.767814063000074, 15.493106139000094 ], [ 73.767442714000083, 15.493095180000076 ], [ 73.766982564000031, 15.492952830000021 ], [ 73.766683585000067, 15.492750851 ], [ 73.766588728000031, 15.49281243500004 ], [ 73.766570619000049, 15.49296642500008 ], [ 73.766509492000054, 15.493222160000101 ], [ 73.76647529300007, 15.493465814000011 ], [ 73.766441902000054, 15.493683738000101 ], [ 73.76628955200006, 15.493885272000078 ], [ 73.76622923100004, 15.494115278000013 ], [ 73.76622196100007, 15.494346849000078 ], [ 73.766149186000078, 15.494550734000072 ], [ 73.766012115000109, 15.494688334000088 ], [ 73.765832432000082, 15.494914815000087 ], [ 73.765718455000055, 15.495164231000029 ], [ 73.765575730000066, 15.495481943000115 ], [ 73.765576874000075, 15.495868286000107 ], [ 73.765674493000063, 15.496141587000071 ], [ 73.7658810410001, 15.496327962000038 ], [ 73.76606308500007, 15.496449228000035 ], [ 73.766397480000109, 15.496368960000055 ], [ 73.766742716000081, 15.49636627300001 ], [ 73.767182406000046, 15.49631486500002 ], [ 73.767323450000077, 15.496473551000093 ], [ 73.767519502000042, 15.496994418000025 ], [ 73.76781237000003, 15.497814313 ], [ 73.767922791000018, 15.498525808000078 ], [ 73.767916672000041, 15.499143727000046 ], [ 73.767744690000029, 15.499664409000051 ], [ 73.767478507000121, 15.500242896000042 ], [ 73.767138580000051, 15.501046076000062 ], [ 73.767083932000062, 15.501243973 ], [ 73.766392982000099, 15.503496182000013 ], [ 73.765934751000017, 15.505219062000013 ], [ 73.765723212000097, 15.505870714000018 ], [ 73.76546828000005, 15.506878564 ], [ 73.765420387000091, 15.507225653000038 ], [ 73.764851431000082, 15.509154563000031 ], [ 73.763483142000027, 15.514214901000038 ], [ 73.763258773000118, 15.515069645000061 ], [ 73.762988052000097, 15.515910088000055 ], [ 73.762492722000061, 15.517889890000085 ], [ 73.762369588000084, 15.518547492000049 ], [ 73.760568981000048, 15.525435078000076 ], [ 73.759891168000095, 15.527612517000026 ], [ 73.759582471000044, 15.528604177 ], [ 73.759170465000068, 15.530341328000034 ], [ 73.758450506, 15.532367237000059 ], [ 73.758180711000065, 15.53369569000002 ], [ 73.75804782200008, 15.534375661000059 ], [ 73.757824951000032, 15.534873475000037 ], [ 73.757742705000055, 15.535314982000063 ], [ 73.757311193000064, 15.536559352000083 ], [ 73.757041219000016, 15.537625712000029 ], [ 73.756932402000075, 15.5382609860001 ], [ 73.756306593000076, 15.540234282000036 ], [ 73.756060009000095, 15.541563025000109 ], [ 73.7559967440001, 15.542799871000039 ], [ 73.755909671000012, 15.543525736000056 ], [ 73.75544970600005, 15.545067979000031 ], [ 73.754660876000059, 15.547034018999987 ], [ 73.754214562000087, 15.548314390000055 ], [ 73.75377284800004, 15.549341805000065 ], [ 73.753135039000028, 15.550379684000053 ], [ 73.752807075000064, 15.551020341000036 ], [ 73.752620448000087, 15.551573043000115 ], [ 73.752275626000056, 15.553460425000047 ], [ 73.752116943000075, 15.554013602000076 ], [ 73.75190382300012, 15.554484463000044 ], [ 73.75158726500004, 15.55580759 ], [ 73.75145947300004, 15.556194024 ], [ 73.750981938000052, 15.557130623000052 ], [ 73.750295186000073, 15.558845283000082 ], [ 73.749701496000057, 15.559757349000051 ], [ 73.749568710000091, 15.55989067900007 ], [ 73.749226041000071, 15.560571886000034 ], [ 73.749213049000062, 15.560779483000069 ], [ 73.749392727, 15.561170842000031 ], [ 73.749880247000107, 15.562034198000056 ], [ 73.749900940000046, 15.562601961000048 ], [ 73.748639107, 15.561624018000046 ], [ 73.748749999000026, 15.561413513000037 ], [ 73.748470473000083, 15.561133436000045 ], [ 73.748457124000041, 15.561132862 ], [ 73.748302873000071, 15.561126132000062 ], [ 73.748160730000038, 15.560992838000047 ], [ 73.748105352000067, 15.560955762000088 ], [ 73.748000347000087, 15.56083210000007 ], [ 73.747839477000099, 15.560698457000026 ], [ 73.747715841000087, 15.560574451000068 ], [ 73.747564663, 15.560418399000035 ], [ 73.747427619000035, 15.560258118 ], [ 73.747173463000053, 15.560127489000035 ], [ 73.746957646000055, 15.559943274999981 ], [ 73.746880116000028, 15.559846997 ], [ 73.746633287000037, 15.559833998000087 ], [ 73.746471422000056, 15.559759105000108 ], [ 73.746285319000023, 15.559742512000067 ], [ 73.746228042000084, 15.559822943000061 ], [ 73.746106672000082, 15.559834515000041 ], [ 73.745943700000097, 15.559822843000052 ], [ 73.745800228000036, 15.559761797000064 ], [ 73.745562947000025, 15.55973980300011 ], [ 73.745324065000077, 15.559808214000086 ], [ 73.745126822, 15.559890835 ], [ 73.744998995000088, 15.560006298000044 ], [ 73.744842995000056, 15.560130226000084 ], [ 73.744794021000089, 15.560274009000079 ], [ 73.744713818000022, 15.560322411000087 ], [ 73.74460959800011, 15.560420084000086 ], [ 73.74452474200011, 15.560477507000041 ], [ 73.744387488000029, 15.56059722 ], [ 73.744306852000108, 15.560681758000065 ], [ 73.744235797000087, 15.560748356000069 ], [ 73.744136581000049, 15.560819039000055 ], [ 73.743949590000028, 15.560856725000065 ], [ 73.743792726000024, 15.561030279000036 ], [ 73.743379427000022, 15.561213331 ], [ 73.743239419000076, 15.561224647000042 ], [ 73.743077676000013, 15.56141625 ], [ 73.743052622000064, 15.561510759 ], [ 73.74301908300005, 15.561564366 ], [ 73.742989886000032, 15.56163623800008 ], [ 73.742965908, 15.561676471000034 ], [ 73.742828389000081, 15.561814248000065 ], [ 73.742785416000075, 15.561872288000071 ], [ 73.74271275800001, 15.562029293 ], [ 73.742598223000044, 15.562185498000051 ], [ 73.742448423000084, 15.562219307000095 ], [ 73.742374332000082, 15.562200047000012 ], [ 73.742169988000043, 15.562156004 ], [ 73.742014603000072, 15.562243801 ], [ 73.741852725000086, 15.562444437000071 ], [ 73.741712884000066, 15.562708834 ], [ 73.741649037000016, 15.562897534000079 ], [ 73.741496120000065, 15.563116358000066 ], [ 73.741502973000109, 15.563256521000028 ], [ 73.741491266000111, 15.563400905000073 ], [ 73.741367311000076, 15.563557069000026 ], [ 73.741290929000058, 15.563659683 ], [ 73.741288446000027, 15.563804191000045 ], [ 73.741319147000084, 15.563913153 ], [ 73.741284850000085, 15.56401201100001 ], [ 73.741222732000011, 15.56410136300012 ], [ 73.741220397000077, 15.564232365000034 ], [ 73.741225483000065, 15.564480914000082 ], [ 73.74124029900004, 15.564698018000016 ], [ 73.741201144000087, 15.564810361000074 ], [ 73.741193222000049, 15.564995446000111 ], [ 73.741237572000088, 15.565127182 ], [ 73.741282185000046, 15.565240853000077 ], [ 73.741275001000076, 15.565656313 ], [ 73.741286669000061, 15.565792119000037 ], [ 73.741283943000013, 15.565950129000054 ], [ 73.7412260400001, 15.566066686000017 ], [ 73.741172637000034, 15.56618782 ], [ 73.741109068000114, 15.566353982000074 ], [ 73.741108955000101, 15.566629606000053 ], [ 73.741101710000038, 15.566787605000069 ], [ 73.741152179000039, 15.566829037000034 ], [ 73.741061110000047, 15.567247732000038 ], [ 73.740989582000083, 15.56733686100004 ], [ 73.740846835000085, 15.567235213000068 ], [ 73.740720469000024, 15.567269300000046 ], [ 73.740644212000106, 15.567362973000069 ], [ 73.740628683000068, 15.567453054000062 ], [ 73.740899414000083, 15.567696890999986 ], [ 73.741095937000082, 15.567926026000027 ], [ 73.741236598000086, 15.568145085000033 ], [ 73.741276973000055, 15.568507271000069 ], [ 73.74118022100005, 15.568980045000018 ], [ 73.741128455000108, 15.569272891 ], [ 73.740993657000061, 15.569794789000106 ], [ 73.740797774000015, 15.570609317000088 ], [ 73.740631330000014, 15.571067403000065 ], [ 73.740182757000113, 15.572207664000086 ], [ 73.739712528000027, 15.572986178000107 ], [ 73.739402087, 15.573414780000043 ], [ 73.739109280000022, 15.573902482000072 ], [ 73.738886913000016, 15.574359713000067 ], [ 73.738780319000071, 15.57486402400005 ], [ 73.738849406000014, 15.575181347000104 ], [ 73.738786690000069, 15.575840021000069 ], [ 73.738557007000068, 15.576988355000047 ], [ 73.738371152000056, 15.577762423000056 ], [ 73.738017930000055, 15.578782273000062 ], [ 73.737609831000043, 15.579462402000026 ], [ 73.737167020000086, 15.580001800000069 ], [ 73.737167654000046, 15.580232272000043 ], [ 73.736904147000089, 15.581181217000044 ], [ 73.736771786000062, 15.581563176000028 ], [ 73.736741262000024, 15.581973721000068 ], [ 73.736554296000094, 15.582806547000054 ], [ 73.736415762, 15.583269591 ], [ 73.736104764000032, 15.584001022000031 ], [ 73.735963747000085, 15.584337507000072 ], [ 73.735790520000052, 15.584922131000038 ], [ 73.735706318000013, 15.585200898000011 ], [ 73.735632988000077, 15.585402892000026 ], [ 73.735491981000038, 15.58573499500006 ], [ 73.735415807000052, 15.585828582000076 ], [ 73.73531292900006, 15.586116039000057 ], [ 73.735232411000055, 15.58645814700003 ], [ 73.735037338000083, 15.586685387 ], [ 73.734918670000042, 15.586809918 ], [ 73.734804387000082, 15.58694358800005 ], [ 73.734717020000048, 15.587145524000061 ], [ 73.734667678000051, 15.587036298000083 ], [ 73.734397063000046, 15.587049918000055 ], [ 73.734210676000075, 15.587046901000072 ], [ 73.73406107700005, 15.587071583000071 ], [ 73.733948280000035, 15.587119491000038 ], [ 73.733914600000091, 15.58718213300007 ], [ 73.733766134000064, 15.587139025000056 ], [ 73.733559238000083, 15.587244138000049 ], [ 73.733418938000028, 15.587273512 ], [ 73.733366994000079, 15.58731327 ], [ 73.733194787000045, 15.587296895000062 ], [ 73.733017246, 15.587316627000096 ], [ 73.732931767000039, 15.587405611000086 ], [ 73.732910861000093, 15.587540842000084 ], [ 73.73280217100006, 15.587620335000089 ], [ 73.73280005900007, 15.587742224000049 ], [ 73.732728225000074, 15.587854075000067 ], [ 73.732613166000064, 15.588037378000045 ], [ 73.732582734000033, 15.588176945000047 ], [ 73.73248719800003, 15.588306400000011 ], [ 73.73243971300009, 15.588359863000083 ], [ 73.732406534000106, 15.588391028000085 ], [ 73.732388008000086, 15.588386211000042 ], [ 73.732264746000098, 15.5885060690001 ], [ 73.732216561000016, 15.588591185000038 ], [ 73.732199757000046, 15.588758092 ], [ 73.732191688000086, 15.588952220000067 ], [ 73.732240026000099, 15.589120204000022 ], [ 73.732275549000107, 15.589224634000047 ], [ 73.732368725000086, 15.589230663000013 ], [ 73.732194170000028, 15.589345296 ], [ 73.732127553000026, 15.589425599000066 ], [ 73.732111926000059, 15.589515589000051 ], [ 73.732119616000077, 15.589610694000015 ], [ 73.732187918000051, 15.589711152000067 ], [ 73.732177390000061, 15.589774245000047 ], [ 73.732179734000084, 15.589909841000075 ], [ 73.732219886000024, 15.590009906 ], [ 73.73228448200004, 15.59005158800008 ], [ 73.73229255600009, 15.590123975000029 ], [ 73.7323195110001, 15.590183207000045 ], [ 73.732412440000061, 15.59020282800007 ], [ 73.732598190000061, 15.590246451000038 ], [ 73.732476941000073, 15.590244506000055 ], [ 73.732396318000056, 15.590320006000084 ], [ 73.732427112000025, 15.590428981000041 ], [ 73.732586400000059, 15.590652881 ], [ 73.732713625000017, 15.590844720000067 ], [ 73.732877899000115, 15.591046283000047 ], [ 73.73300537500009, 15.591224438000044 ], [ 73.733183807000017, 15.591417207000095 ], [ 73.733424362000036, 15.591525004000044 ], [ 73.733580664000087, 15.591654002000059 ], [ 73.733678073000064, 15.591682764000041 ], [ 73.733781215000064, 15.591648225000025 ], [ 73.733773016000015, 15.591851388000048 ], [ 73.733878138000094, 15.591970691000061 ], [ 73.734062177000041, 15.592109102000055 ], [ 73.734317139, 15.592059108000093 ], [ 73.734233389000096, 15.592184233000054 ], [ 73.734260123000084, 15.59225240300001 ], [ 73.734315532000053, 15.592284923000037 ], [ 73.734342108000121, 15.59236678200006 ], [ 73.734336247000073, 15.592439024000086 ], [ 73.734339750000103, 15.592502267000079 ], [ 73.734376781000051, 15.59251646300001 ], [ 73.734371454000055, 15.592552481000059 ], [ 73.734240716000073, 15.592568390000043 ], [ 73.734197085000105, 15.592667126000041 ], [ 73.734269438000055, 15.592790219000012 ], [ 73.734319383000098, 15.592867881000043 ], [ 73.734313901000093, 15.592917497000062 ], [ 73.734294151000057, 15.592980375000025 ], [ 73.734269295000047, 15.593070333000096 ], [ 73.734146380000084, 15.593172315000096 ], [ 73.734070124000084, 15.593261425 ], [ 73.734049090000028, 15.593405600000036 ], [ 73.734145409000092, 15.593493023000075 ], [ 73.734185922000066, 15.593575027000021 ], [ 73.734157698000047, 15.593592618000056 ], [ 73.734092478000065, 15.59358706600004 ], [ 73.734063138000039, 15.593667975000074 ], [ 73.734056450000111, 15.593780812 ], [ 73.733994318000029, 15.593870075 ], [ 73.733997287000093, 15.593969542000067 ], [ 73.73392558800002, 15.594072272000041 ], [ 73.733872883000103, 15.594157285000058 ], [ 73.733843580999988, 15.594229156000054 ], [ 73.733781316000076, 15.594327452000105 ], [ 73.733723169000058, 15.594453045000016 ], [ 73.733650978000043, 15.594582870000099 ], [ 73.733560012000069, 15.594721472000021 ], [ 73.733475024000043, 15.594783272000072 ], [ 73.733393017000097, 15.594940157000085 ], [ 73.733330257000063, 15.595065641000076 ], [ 73.733279044, 15.595064801 ], [ 73.733156170000044, 15.595157653000051 ], [ 73.733087927999989, 15.595332753000061 ], [ 73.733076268, 15.595463547000048 ], [ 73.733013146000118, 15.595607185000031 ], [ 73.732923809000098, 15.595650810000087 ], [ 73.732811970000071, 15.595648998000026 ], [ 73.732690810000094, 15.595647058000043 ], [ 73.732583472000087, 15.595649823 ], [ 73.73252220100008, 15.595689546000095 ], [ 73.732450216000075, 15.595814814000068 ], [ 73.732448009000066, 15.595936702000117 ], [ 73.732470619000082, 15.59597776100005 ], [ 73.732544799, 15.596001595000068 ], [ 73.732661855000089, 15.595971858 ], [ 73.732806380000056, 15.595969693 ], [ 73.73293122600009, 15.596034972999988 ], [ 73.73302246, 15.596144914000025 ], [ 73.733076492000023, 15.596258728000027 ], [ 73.73310719300008, 15.596367700000073 ], [ 73.733134551000035, 15.596399741000059 ], [ 73.73315640400007, 15.596485962 ], [ 73.733169450000076, 15.596540395000062 ], [ 73.733165959000061, 15.596743580000087 ], [ 73.733130667000069, 15.59689663700005 ], [ 73.733118590000046, 15.59705909500008 ], [ 73.732974826000046, 15.597282617000101 ], [ 73.732696100000084, 15.597494929000081 ], [ 73.732404969000058, 15.597612206000104 ], [ 73.732204051000053, 15.597636043000033 ], [ 73.732095917000066, 15.597693008000039 ], [ 73.731945324000051, 15.597771882000082 ], [ 73.731939371000081, 15.597844030000012 ], [ 73.731927536000086, 15.597992985000079 ], [ 73.731972170000049, 15.598102195000056 ], [ 73.732113205000076, 15.598303216 ], [ 73.732290778000035, 15.598545623000064 ], [ 73.732481755000023, 15.598824398000037 ], [ 73.732792898000099, 15.599163780000051 ], [ 73.733127523000078, 15.599494496000059 ], [ 73.73354094200009, 15.599849154 ], [ 73.733958109000056, 15.600253552000069 ], [ 73.734113287000099, 15.600450342 ], [ 73.7341476080001, 15.600617998000114 ], [ 73.73415444400004, 15.601029260000036 ], [ 73.734100028000071, 15.601475681000025 ], [ 73.733970405, 15.601961589000084 ], [ 73.733835071000087, 15.602239440000069 ], [ 73.733642303000039, 15.602606759 ], [ 73.733511313000037, 15.602902877000073 ], [ 73.73330616600002, 15.603437117000045 ], [ 73.733190485000037, 15.603652175000075 ], [ 73.73311653500005, 15.603885834000046 ], [ 73.73301177800009, 15.604010697000074 ], [ 73.73287420300008, 15.604148570000024 ], [ 73.732819044000038, 15.604368978000053 ], [ 73.732840771000056, 15.604464144000112 ], [ 73.732876539000088, 15.604555167000093 ], [ 73.732793531000056, 15.604770631000068 ], [ 73.732640945000043, 15.604962458000042 ], [ 73.732479511000108, 15.605131533000087 ], [ 73.73236006500008, 15.605301324000013 ], [ 73.73228305, 15.605435510000103 ], [ 73.732128305000089, 15.605491744000048 ], [ 73.731907865000053, 15.605564958000066 ], [ 73.731831187000111, 15.605685645000015 ], [ 73.73181988000006, 15.605798469000025 ], [ 73.731705804000029, 15.605923112000035 ], [ 73.731652492000066, 15.606039693000088 ], [ 73.731654815000084, 15.606179858000051 ], [ 73.731736114000057, 15.606325713000039 ], [ 73.731921243, 15.606676649000033 ], [ 73.732070375, 15.606945681000088 ], [ 73.732459470000038, 15.607358557000055 ], [ 73.732611946000048, 15.607437906000047 ], [ 73.732880998000013, 15.607514614 ], [ 73.733272808, 15.607507409000025 ], [ 73.733945125000048, 15.607450576000119 ], [ 73.734509675000126, 15.607428174000042 ], [ 73.734994728000018, 15.607413480000069 ], [ 73.735361316000066, 15.607514385000069 ], [ 73.736013873000061, 15.607791514000084 ], [ 73.736496680000045, 15.607907837000027 ], [ 73.736803738000049, 15.607948922000052 ], [ 73.737625448000088, 15.6078765080001 ], [ 73.738531121000065, 15.607809899000095 ], [ 73.738754930000098, 15.607809044000113 ], [ 73.738881070000062, 15.607793023000031 ], [ 73.738821911000045, 15.607710671000056 ], [ 73.738814096000027, 15.607620214000033 ], [ 73.738839438000085, 15.607503246000036 ], [ 73.738911255000076, 15.60739595100004 ], [ 73.739039, 15.607289514000026 ], [ 73.739176586000085, 15.607147251000068 ], [ 73.739178807, 15.607020795 ], [ 73.739167849000069, 15.606848941000077 ], [ 73.73923098800006, 15.606700823000079 ], [ 73.739357370000036, 15.606671298000034 ], [ 73.73947243800005, 15.606758980000095 ], [ 73.739474906000083, 15.606890021000012 ], [ 73.739558793000086, 15.606891352000034 ], [ 73.739614958000033, 15.606607708000102 ], [ 73.739812314000105, 15.60651595700006 ], [ 73.740047418000103, 15.606402366000076 ], [ 73.74018001400006, 15.606282533000108 ], [ 73.740326282000083, 15.606181001000056 ], [ 73.740458237000084, 15.606101862000081 ], [ 73.740557434000024, 15.606022043000049 ], [ 73.740904852, 15.605887723000038 ], [ 73.741218776000039, 15.60579341400005 ], [ 73.741237504000082, 15.605251586000072 ], [ 73.741724372000036, 15.605137516000049 ], [ 73.742416443000096, 15.605013200000066 ], [ 73.743310556000012, 15.605072890000031 ], [ 73.744274663000013, 15.605395810000104 ], [ 73.744669654000106, 15.605690492000061 ], [ 73.742598523000069, 15.606998864000047 ], [ 73.741289276, 15.609528822000033 ], [ 73.740224048000073, 15.612015401000072 ], [ 73.740440324000105, 15.613624872000102 ], [ 73.740984295, 15.617459664000048 ], [ 73.741924682000089, 15.619458559000059 ], [ 73.743835079000064, 15.621709047000014 ], [ 73.745905197000098, 15.623159026000081 ], [ 73.748238726000096, 15.624490361000014 ], [ 73.749763951000077, 15.626073831000024 ], [ 73.749799412000087, 15.62611195000007 ], [ 73.752440194, 15.628946199 ], [ 73.753050912000077, 15.629601638000061 ], [ 73.754299412000094, 15.631017946 ], [ 73.754916527000077, 15.631557967000013 ], [ 73.755241084000019, 15.631841968000064 ], [ 73.755757449000029, 15.632184660000085 ], [ 73.756906254000043, 15.632623378000059 ], [ 73.757219449000019, 15.632635122000053 ], [ 73.757544633000109, 15.632647325000086 ], [ 73.759434111000118, 15.63231639300006 ], [ 73.759884592000091, 15.632229511000066 ], [ 73.760061029000028, 15.632195491000093 ], [ 73.760819522000091, 15.63228000800007 ], [ 73.761391870000097, 15.63235251900003 ], [ 73.762065586000062, 15.632494487000052 ], [ 73.762431780000085, 15.632772764000073 ], [ 73.763547595000034, 15.633620804000074 ], [ 73.764855485000069, 15.635043769000038 ], [ 73.76520003400006, 15.635418591000054 ], [ 73.765738356000014, 15.635838439000064 ], [ 73.766771933, 15.63647411600008 ], [ 73.76809452900001, 15.637114330000028 ], [ 73.769784833000074, 15.637792213000072 ], [ 73.770862546000075, 15.638302010000064 ], [ 73.772505231000096, 15.639313486000088 ], [ 73.773249203, 15.640256123000011 ], [ 73.774436329000096, 15.642090425000081 ], [ 73.774584843000028, 15.642319867000058 ], [ 73.775354746000048, 15.644438178 ], [ 73.775653599000094, 15.645260315 ], [ 73.776709245000035, 15.647608638000047 ], [ 73.777025443000085, 15.648312270000091 ], [ 73.777234844000091, 15.648778240000098 ], [ 73.777356334000018, 15.648987118000061 ], [ 73.777529345000033, 15.649284593000072 ], [ 73.777861802000103, 15.649750743 ], [ 73.778361593000056, 15.650246705 ], [ 73.778812002000024, 15.650628966000017 ], [ 73.779071048000048, 15.650746469000058 ], [ 73.779390403, 15.650891327000053 ], [ 73.77996480900002, 15.651117354000103 ], [ 73.781259860000063, 15.651472560000094 ], [ 73.782565271000067, 15.651764561 ], [ 73.783837075000051, 15.651839156000051 ], [ 73.785075658000025, 15.651944813000089 ], [ 73.786359751000049, 15.651852431000083 ], [ 73.787646034000076, 15.651624533000057 ], [ 73.787823991000053, 15.651583401000028 ], [ 73.789546770000044, 15.651185090000112 ], [ 73.791910005, 15.650152031000079 ], [ 73.793001703000087, 15.649573054000047 ], [ 73.795037280000031, 15.648064848000047 ], [ 73.795588283000058, 15.647743811000041 ], [ 73.796196785000049, 15.647613463 ], [ 73.796434399000077, 15.647619426000052 ], [ 73.796700231000045, 15.647626096000071 ], [ 73.797226351000049, 15.647695781000063 ], [ 73.797398044000047, 15.64771852600008 ], [ 73.797959510000055, 15.647885575000046 ], [ 73.798584190000042, 15.648171110000046 ], [ 73.802202247000096, 15.649579750000068 ], [ 73.804552470000033, 15.650683418 ], [ 73.806892909000069, 15.651538538000047 ], [ 73.808705132000085, 15.652199883000055 ], [ 73.810541596000064, 15.652522744000034 ], [ 73.813194352, 15.652840472000033 ], [ 73.814317655000124, 15.653151485 ], [ 73.815116004000103, 15.653372501 ], [ 73.815688995000087, 15.653408667000061 ], [ 73.816966676000021, 15.653135206000083 ], [ 73.817228598000014, 15.653082986000115 ], [ 73.818875774000063, 15.652754363000014 ], [ 73.820055830000086, 15.652461209 ], [ 73.822856119000051, 15.650666592000022 ], [ 73.8236583, 15.650273643000016 ], [ 73.824017533000045, 15.650097660000021 ], [ 73.824604336000021, 15.650143052000047 ], [ 73.82798613600005, 15.650092597000047 ], [ 73.829410438000039, 15.650246039000042 ], [ 73.832558059000064, 15.650806265000032 ], [ 73.833015292000056, 15.650767431000105 ], [ 73.833230531000098, 15.650749147000013 ], [ 73.833863809, 15.650117719 ], [ 73.83503276400009, 15.648952136 ], [ 73.838092852000074, 15.646108681000019 ], [ 73.838976935000034, 15.645941808000067 ], [ 73.839615160000079, 15.645979 ], [ 73.840213371000104, 15.64617812500008 ], [ 73.840643140000054, 15.646555353000029 ], [ 73.841060583000043, 15.646921758000058 ], [ 73.841183071000046, 15.647029268000072 ], [ 73.841598900000079, 15.647541887000031 ], [ 73.841805938000064, 15.648311805000052 ], [ 73.841914918000029, 15.648717038 ], [ 73.841918419000052, 15.649345068000102 ], [ 73.841830279000035, 15.649771177 ], [ 73.841781472, 15.65000713000008 ], [ 73.841744572000053, 15.650234111000032 ], [ 73.841682574000075, 15.650615469000055 ], [ 73.841114455000053, 15.653617651000033 ], [ 73.841099476000053, 15.65369680500001 ], [ 73.840744724000018, 15.657337451000057 ], [ 73.840550602000036, 15.661129764000041 ], [ 73.840586310000049, 15.662336644000067 ], [ 73.840898342000031, 15.663475623000071 ], [ 73.841788100000016, 15.664375239000076 ], [ 73.842209246000039, 15.664653963000045 ], [ 73.843319524000066, 15.665388727000089 ], [ 73.844436174000094, 15.665820970000059 ], [ 73.845108077000091, 15.666081052 ], [ 73.847572994000103, 15.666765815000076 ], [ 73.849374697000059, 15.667512435000035 ], [ 73.84999566, 15.667752674000017 ], [ 73.850220562000061, 15.667885835000021 ], [ 73.850512897000087, 15.668058921000043 ], [ 73.850976165000048, 15.668522549000034 ], [ 73.85111701600006, 15.668683221 ], [ 73.852189054000036, 15.669906040000019 ], [ 73.852414112000091, 15.670327691000089 ], [ 73.852510068000043, 15.670507449000041 ], [ 73.855018925000053, 15.674161317000028 ], [ 73.855394073000099, 15.674596503000064 ], [ 73.855669893000098, 15.67487232800006 ], [ 73.855829993000015, 15.675032447999985 ], [ 73.856010287000103, 15.675137575000068 ], [ 73.856379538000013, 15.675352910000033 ], [ 73.856948156000072, 15.675659945000035 ], [ 73.858059772000033, 15.676124599000023 ], [ 73.859297391000027, 15.676586739000069 ], [ 73.860524852000069, 15.677098382000036 ], [ 73.861023537000037, 15.677395327000092 ], [ 73.863222393000072, 15.678952293000041 ], [ 73.863202210000082, 15.679265152 ], [ 73.864728151000051, 15.679843298000044 ], [ 73.864756734000096, 15.679845018 ], [ 73.865338474000097, 15.679880017000063 ], [ 73.867314287000056, 15.679418222000045 ], [ 73.869150987000069, 15.678918206000063 ], [ 73.869287182000051, 15.678892798000092 ], [ 73.871073769000077, 15.678559508000049 ], [ 73.871528807000075, 15.678541349000056 ], [ 73.872296582, 15.678510707 ], [ 73.874265558000033, 15.678749193000023 ], [ 73.874799241000048, 15.678884697000044 ], [ 73.87801828000002, 15.679702077000083 ], [ 73.882364389, 15.681161150000015 ], [ 73.884182705000072, 15.682052253000027 ], [ 73.884683490000029, 15.682511838000039 ], [ 73.88513745500002, 15.682984276000049 ], [ 73.885936683000068, 15.682318888000061 ], [ 73.88623233600002, 15.682205970000044 ], [ 73.886499816000125, 15.682110700000067 ], [ 73.887020017000097, 15.681956083000063 ] ] ] } }
]
}
